Company Name,BAN,Substance Abuse,LCSW,LPC,MFT,LMSW,PLPC,Psychiatric Nurse Practitioner,Psychiatrist,Psychologist,Alcohol and Substance Abuse,Anger Management,Child/Adolescent,Domestic Violence,Faith Based,Family/Marriage,General Mental Health,Post Traumatic Stress,Sexual Assault,Suicide Prevention,Traumatic Brain Injury,Website,Phone Number,Zip Code,Country ,TRICARE,Military Culture,Admin Notes,Location 1,Suite No.
Abundant Life Counseling Center,No,No,No,Yes,No,No,No,No,No,No,Yes,Yes,Yes,Yes,Yes,Yes,Yes,Yes,Yes,Yes,Yes,,8167183080,64081,United States,No,"Not yet, but I would like to work with the military community",,"414 SW Persels Rd
Lee's Summit, Missouri 64081
(38.896309, -94.381906)",
"Accessing Change, Inc.",No,No,Yes,No,No,Yes,No,No,No,No,Yes,Yes,Yes,No,Yes,Yes,Yes,Yes,Yes,Yes,No,http://www.accessingchange.com,8165824684,64158,United States,Yes,"Not yet, but I would like to work with the military community",,"9601 NE Barry Road
Kansas City, Missouri 64158
(39.244622, -94.462181)",Suite 220
"Adriatik Likcani, MFT",No,Yes,No,No,Yes,No,No,No,No,No,Yes,Yes,Yes,Yes,No,Yes,Yes,Yes,Yes,No,No,http://www.recoverylighthouse.org,6604292222,65301,United States,No,"Not yet, but I would like to work with the military community",,"417 West Pettis
Sedalia, Missouri 65301
(38.713412, -93.230241)",
Alford Counseling,No,No,Yes,No,No,No,No,No,No,No,No,Yes,Yes,No,No,Yes,Yes,Yes,Yes,No,No,,6605826470,64468,United States,No,"Not yet, but I would like to work with the military community",,"106 West Edwards
Maryville, Missouri 64468
(40.342166, -94.87318)",
"Alicia Ozenberger, LPC",No,No,No,Yes,No,No,No,No,No,No,No,No,Yes,Yes,No,No,Yes,No,No,Yes,No,,5739901112,65010,United States,No,"Not yet, but I would like to work with the military community",,"305 E. Broadway
Ashland, Missouri 65010
(38.774563, -92.258237)",
"A Life's Journey, LLC",No,No,No,Yes,No,No,No,No,No,No,No,Yes,No,No,No,Yes,Yes,No,No,No,No,,8166954515,64110,United States,No,"Not yet, but I would like to work with the military community",,"1734 E 63rd
Kansas City, Missouri 64110
(39.012869, -94.564765)",Suite 504
Alliance Mental Health,No,No,No,Yes,No,No,No,No,No,No,Yes,Yes,Yes,Yes,Yes,No,Yes,Yes,No,Yes,Yes,,4173215055,64772,United States,No,"Not yet, but I would like to work with the military community",,"100 South Prewitt
Nevada, Missouri 64772
(37.838699, -94.375685)",
Alpha Omega Delta,No,No,No,Yes,No,No,No,No,No,No,Yes,No,Yes,No,Yes,Yes,Yes,Yes,Yes,Yes,No,http://alphaomegadelta.net/,4178812444,65804,United States,No,"Not yet, but I would like to work with the military community",,"2200 E Sunshine
Springfield, Missouri 65804
(37.1811006, -93.251459)",Suite 203
Alternatives,No,Yes,No,Yes,No,No,No,No,No,No,Yes,Yes,No,Yes,No,Yes,Yes,Yes,No,No,No,http://missourialternatives.com,4178837227,65810,United States,No,"Not yet, but I would like to work with the military community",,"5337 South Campbell Ave
Springfield, Missouri 65810
(37.117444, -93.296726)",Suite F
Amanda Luckett Murphy Hopewell Center,No,No,No,Yes,No,No,No,No,No,No,No,No,Yes,No,No,No,Yes,Yes,No,No,No,http://www.hopewellcenter.com/,3145311770,63115,United States,No,"Not yet, but I would like to work with the military community",,"4411 North Newstead Ave
St. Louis, Missouri 63115
(38.678389, -90.230337)",
Amanda Luckett Murphy Hopewell Center,No,No,Yes,Yes,No,No,No,No,Yes,No,No,No,No,No,No,No,Yes,No,No,No,No,http://www.hopewellcenter.com/,3145311770,63104,United States,No,"Not yet, but I would like to work with the military community",,"1504 South Grand Blvd
St. Louis, Missouri 63104
(38.620555, -90.238533)",
"Amelia  Chenoweth, LPC, LCSW",No,No,Yes,Yes,No,No,No,No,No,No,No,No,Yes,No,No,Yes,Yes,Yes,No,Yes,No,,4178608684,65804,United States,No,"Not yet, but I would like to work with the military community",,"2021 S. Waverly
Springfield, Missouri 65804
(37.177154, -93.263775)",Suite 700
A New Expectation Counseling,No,No,No,Yes,No,No,No,No,No,No,Yes,Yes,Yes,Yes,Yes,No,Yes,Yes,Yes,Yes,Yes,,5734653603,65559,United States,No,"Not yet, but I would like to work with the military community",,"13395 CR-3550
St. James, Missouri 65559
(37.901615, -91.608672)",
A New Song Counseling,No,No,No,Yes,No,No,No,No,No,No,Yes,Yes,Yes,Yes,Yes,Yes,Yes,Yes,Yes,Yes,No,,5736479039,65401,United States,Yes,"Not yet, but I would like to work with the military community",,"1030A Kingshighway
Rolla, Missouri 65401
(37.945445, -91.782724)",
A New Song Counseling,No,No,No,Yes,No,No,No,No,No,No,Yes,Yes,Yes,Yes,Yes,Yes,Yes,Yes,Yes,Yes,No,,5736479039,65583,United States,Yes,"Not yet, but I would like to work with the military community",,"413 Rte 66
Waynesville, Missouri 65584
(37.824404, -92.210195)",
"Angela Toomey, LCSW",No,No,Yes,No,No,No,No,No,No,No,Yes,Yes,Yes,No,Yes,Yes,Yes,Yes,Yes,Yes,No,http://ozarksmedicalcenter.com,4172576762,65775,United States,No,"Not yet, but I would like to work with the military community",,"909 Kentucky
West Plains, Missouri 65775
(36.736287, -91.875593)",
Annalisa Gramlich LPC RYT200,No,No,No,Yes,No,No,No,No,No,No,No,Yes,No,No,Yes,No,Yes,Yes,No,No,No,,8169169642,64114,United States,No,"Not yet, but I would like to work with the military community",,"8080 Ward Parkway
Kansas City, Missouri 64114
(38.982642, -94.607028)",Suite 330
"Anna Majors, LPC",No,No,No,Yes,No,No,No,No,No,No,Yes,Yes,Yes,Yes,No,Yes,Yes,Yes,No,Yes,No,http://www.newvisioncounseling.com,5734810888,63801,United States,No,"Not yet, but I would like to work with the military community",,"404 East Center
Sikeston, Missouri 63801
(36.875689, -89.580917)",
Associates In Caring,No,No,No,Yes,No,No,No,No,No,No,Yes,Yes,Yes,No,No,Yes,Yes,Yes,No,No,No,http://www.associatesincaring.org,4172349023,65807,United States,No,"Not yet, but I would like to work with the military community",,"227 E. Sunshine
Springfield, Missouri 65807
(37.182194, -93.291951)",Suite 120
A Tru Path Counseling Services (sm),No,No,No,Yes,No,No,No,No,No,No,Yes,Yes,Yes,No,No,Yes,Yes,Yes,Yes,Yes,Yes,http://www.atrupathcounseling.net,8165509549,64133,United States,Yes,"Not yet, but I would like to work with the military community",,"Raytown, Missouri 64133
(39.014892, -94.460478)",
Attachment and Family Therapy Center,No,No,No,Yes,No,No,No,No,No,No,No,No,Yes,No,No,Yes,No,Yes,No,No,No,,4174963931,65802,United States,No,"Not yet, but I would like to work with the military community",,"1340 West Battlefield
Springfield, Missouri 65802
(37.160114, -93.310121)",Suite 6
Avenues Counseling Center,No,No,No,No,No,No,Yes,No,No,No,No,No,No,No,Yes,No,No,Yes,No,No,No,http://franktheusplpc.com/,5732460431,63117,United States,No,"Yes, I have served in the military",,"1612 S. Big Bend Blvd
St. Louis, Missouri 63117
(38.624279, -90.32066)",
"Barbara Becherer, LPC",No,No,No,Yes,No,No,No,No,No,No,No,Yes,Yes,Yes,No,Yes,Yes,Yes,Yes,No,No,http://bechererlpc.net/,3146237575,63050,United States,No,"Yes, I have training in military culture",,"10785 Business Hwy 21
Hillsboro, Missouri 63050
(38.226295, -90.567813)",
"Barb Campbell, LPC",No,Yes,No,Yes,No,No,No,No,No,No,Yes,Yes,No,No,No,No,Yes,Yes,No,Yes,No,,4177615832,65804,United States,Yes,"Yes, I have training in military culture",,"1300 Bradford Parkway
Springfield, Missouri 65804
(37.146945, -93.274983)",
"Behavior Management Associates, PC",No,No,Yes,Yes,No,No,No,No,No,Yes,Yes,Yes,Yes,Yes,Yes,Yes,Yes,Yes,Yes,Yes,Yes,http://www.behaviormgt.com,4177821910,64804,United States,Yes,"Yes, I have training in military culture",,"2702 Cunningham
Joplin, Missouri 64804
(37.061481, -94.535994)",Suite A
"Benton Street Counseling, LLC",No,No,Yes,Yes,No,No,No,No,No,No,Yes,Yes,Yes,Yes,Yes,No,Yes,Yes,Yes,Yes,No,http://www.bentonstreetcounseling.com/,5734432833,65583,United States,Yes,"Not yet, but I would like to work with the military community",,"119 N. Benton Street
Waynesville, Missouri 65583
(37.829382, -92.201678)",
"Benton Street Counseling, LLC",No,No,No,Yes,No,No,No,No,No,No,Yes,Yes,Yes,Yes,Yes,No,Yes,Yes,Yes,Yes,No,http://www.bentonstreetcounseling.com/,5734432833,65020,United States,Yes,"Not yet, but I would like to work with the military community",,"89 McCrory Dr
Camdenton, Missouri 65020
(38.004332, -92.754948)",
"Better Life Counseling, LLC",No,No,No,Yes,No,No,No,No,No,No,No,Yes,Yes,Yes,No,No,Yes,Yes,No,No,No,,3143233631,63042,United States,No,"Not yet, but I would like to work with the military community",,"737 Dunn Road
Hazelwood, Missouri 63042
(38.782166, -90.374177)",Suite A
BJC Behavioral Health,No,No,Yes,No,No,No,No,No,No,No,No,Yes,Yes,Yes,No,Yes,Yes,Yes,No,No,No,http://bjcbehavioralhealth.org,3147294004,63141,United States,No,"Not yet, but I would like to work with the military community",,"605 Old Ballas Road
St. Louis, Missouri 63141
(38.666966, -90.438557)",Suite 123
Blash Counseling Associates,No,No,No,Yes,No,No,No,No,No,No,Yes,Yes,Yes,Yes,Yes,Yes,Yes,Yes,No,Yes,No,,3145031746,63107,United States,No,"Not yet, but I would like to work with the military community",,"1323 Sullivan Ave.
St. Louis, Missouri 63107
(38.652786, -90.19706)",
"Bobbi Summers, LPC",No,No,No,Yes,No,No,No,No,No,No,No,Yes,Yes,Yes,No,Yes,Yes,Yes,No,Yes,No,,5732104049,63664,United States,No,"Not yet, but I would like to work with the military community",,"215 East High Street
Potosi, Missouri 63664
(37.935022, -90.785771)",Suite 5
Body & Soul Counseling,No,Yes,No,Yes,No,No,No,No,No,No,Yes,Yes,No,Yes,No,No,Yes,Yes,Yes,Yes,Yes,http://www.gsmiththerapy.com,3144224651,63119,United States,Yes,"Yes, I have served in the military",,"540 Garden Ave
St. Louis, Missouri 63119
(38.588491, -90.343341)",
Body & Soul Counseling,No,Yes,No,Yes,No,No,No,No,No,No,Yes,Yes,No,Yes,No,No,Yes,Yes,Yes,Yes,Yes,http://www.gsmiththerapy.com,3144224651,63105,United States,Yes,"Yes, I have served in the military",,"225 S. Meramec Ave
Clayton, Missouri 63105
(38.646643, -90.340173)",Suite 432
"Bonnie Rudden, LPC",No,No,No,Yes,No,No,No,No,No,No,No,Yes,Yes,Yes,No,Yes,Yes,No,No,No,No,,3144124281,63131,United States,No,"Not yet, but I would like to work with the military community",,"2190 S. Mason Road
St. Louis, Missouri 63131
(38.596429, -90.479527)",Suite 300
Bootheel Counseling Services,No,No,No,Yes,No,No,No,No,No,No,Yes,Yes,No,No,No,No,Yes,Yes,No,Yes,No,http://www.bootheelcounseling.com/,5734710800,63801,United States,No,"Not yet, but I would like to work with the military community",,"760 Plantation Blvd
Sikeston, Missouri 63801
(36.866446, -89.580858)",
Bridgeway Behavioral Health,No,Yes,No,No,No,No,No,No,No,No,Yes,Yes,Yes,Yes,Yes,No,Yes,No,Yes,No,No,http://www.bridgewaybh.com/,6362241000,63303,United States,No,"Not yet, but I would like to work with the military community",,"1507 S. Main Street
St. Charles, Missouri 63303
(38.764973, -90.4925)",
Burrell Behavioral Health,No,No,No,Yes,No,No,No,No,No,No,Yes,Yes,No,Yes,Yes,No,Yes,Yes,Yes,Yes,Yes,http://www.burrellcenter.com,4177615600,65807,United States,No,"Not yet, but I would like to work with the military community",,"323 E. Grand Street
Springfield, Missouri 65807
(37.19688, -93.29041)",
Calming the Storm Counseling,No,No,No,Yes,No,No,No,No,No,No,No,Yes,Yes,Yes,Yes,Yes,Yes,Yes,Yes,Yes,No,http://www.calmingthestormcounseling.com,4176508990,65536,United States,Yes,"Not yet, but I would like to work with the military community",,"2120 South Jefferson
Lebanon, Missouri 65536
(37.655347, -92.64946)",
"Candice Farrell, LPC",No,No,No,Yes,No,No,No,No,No,No,Yes,Yes,Yes,No,No,Yes,Yes,Yes,Yes,Yes,Yes,,3148311533,63033,United States,No,"Not yet, but I would like to work with the military community",,"1385 Harkee
Florissant, Missouri 63033
(38.814232, -90.342885)",
CarePoint Christian Counseling,No,No,No,Yes,No,No,No,No,No,No,No,Yes,Yes,No,Yes,Yes,Yes,No,No,No,No,http://www.CarePointCounseling.com,3148228888,63122,United States,No,"Not yet, but I would like to work with the military community",,"12166 Old Big Bend Road
Kirkwood, Missouri 63122
(38.56938, -90.433648)",Suite 307
"Casondra M. Foster, MS LPC",No,No,No,Yes,No,No,No,No,No,No,No,Yes,Yes,No,No,Yes,Yes,Yes,No,No,No,,8165477119,64134,United States,No,"Not yet, but I would like to work with the military community",,"9725 Harvard Avenue
Kansas City, Missouri 64134
(38.945404, -94.453498)",
Catholic Charities,No,No,No,Yes,No,No,No,No,No,No,No,No,Yes,Yes,No,Yes,Yes,Yes,Yes,Yes,No,http://catholiccharites-kcsj.org,8166598277,64105,United States,No,"Not yet, but I would like to work with the military community",,"850 Main Street
Kansas City, Missouri 64105
(39.104052, -94.583575)",
CC Counseling Services,No,No,No,Yes,No,No,No,No,No,No,No,Yes,Yes,No,No,Yes,Yes,No,No,No,No,http://cccounselors.com/,4177258810,65714,United States,No,"Not yet, but I would like to work with the military community",,"380 E State Hwy CC
Nixa, Missouri 65714
(37.072564, -93.286901)",Suite A105
"Celeste Daiber, M.Ed., LPC, NCC, RPT (ages 3 to 21)",No,No,No,Yes,No,No,No,No,No,No,No,Yes,Yes,No,Yes,No,Yes,Yes,No,Yes,No,http://kscounselingstl.com,6367241224,63301,United States,No,"Not yet, but I would like to work with the military community",,"408 Jefferson Street
St. Charles, Missouri 63301
(38.782414, -90.485217)",
"Center for Life Solutions, Inc",No,Yes,No,Yes,No,No,No,No,No,No,Yes,No,No,No,No,No,No,No,No,No,No,http://www.centerforlifesolutions.org,3147310100,63042,United States,No,"Not yet, but I would like to work with the military community",,"637 Dunn Rd
Hazelwood, Missouri 63042
(38.779655, -90.363888)",Suite 180
"Central Light Counseling, LLC",No,No,No,Yes,No,No,No,No,No,No,Yes,Yes,Yes,Yes,Yes,Yes,Yes,Yes,Yes,Yes,Yes,http://www.centrallightcounseling.com,3143019297,63118,United States,No,"Not yet, but I would like to work with the military community",,"3115 South Grand Blvd
St. Louis, Missouri 63118
(38.602473, -90.242316)",Suite 450
Christian Whole Person Counseling Services,No,No,No,Yes,No,No,No,No,No,No,Yes,Yes,No,No,No,Yes,Yes,No,No,No,No,,3147274223,63130,United States,No,"Not yet, but I would like to work with the military community",,"8147 Delmar
University City, Missouri 63130
(38.660325, -90.347712)",Suite 212
"Christine Cooper, LPC",No,No,No,Yes,No,No,No,No,No,No,No,Yes,Yes,No,Yes,Yes,Yes,No,No,No,No,,5734801346,65203,United States,No,"Not yet, but I would like to work with the military community",,"5209 Beacon Falls Drive
Columbia, Missouri 65203
(38.897809, -92.41008)",
"Christopher Cornine, LPC",No,No,No,Yes,No,No,No,No,No,No,Yes,Yes,Yes,No,Yes,Yes,Yes,Yes,Yes,Yes,Yes,http://www.diakonocounseling.com,8163739240,64057,United States,Yes,"Yes, I have training in military culture",,"4200 Little Blue Parkway
Independence, Missouri 64057
(39.037699, -94.341209)",Suite 360
Clarity Counseling and EMDR Center,No,No,No,Yes,No,No,No,No,No,No,Yes,Yes,No,Yes,No,Yes,Yes,Yes,Yes,No,No,http://www.traumaemdrtherapystlouis.com,3148885212,63105,United States,No,"Not yet, but I would like to work with the military community",,"141 N. Meramec Ave
Clayton, Missouri 63105
(38.653271, -90.339245)",Suite 109
Clarity Healthcare,No,No,Yes,No,No,No,No,Yes,Yes,No,No,No,Yes,No,No,No,Yes,No,No,No,No,http://www.clarity-healthcare.org,5736031460,63401,United States,Yes,"Not yet, but I would like to work with the military community",,"141 Communication Drive
Hannibal, Missouri 63401
(39.70223, -91.391957)",
Clarity Recovery/a Division of Burrell Behavioral Health,No,Yes,No,Yes,No,No,No,No,No,No,Yes,Yes,No,No,No,Yes,Yes,Yes,Yes,Yes,No,http://WWW.BURRELLCENTER.COM,4178937767,65807,United States,No,"Not yet, but I would like to work with the military community",,"1016 W. Battlefield
Springfield, Missouri 65807
(37.160042, -93.305277)",
Clarity Recovery and Wellness,No,Yes,No,Yes,No,No,No,No,No,No,Yes,Yes,No,No,No,No,No,No,No,No,No,http://www.clarityrecovery.org,4178623339,65802,United States,Yes,"Not yet, but I would like to work with the military community",,"800 S Park Avenue
Springfield, Missouri 65802
(37.200501, -93.32209)",
Clark Community Mental Health Center,No,No,Yes,No,No,No,No,No,No,No,Yes,Yes,No,No,Yes,Yes,Yes,Yes,No,No,No,http://www.clarkmentalhealth.com,4172356610,65708,United States,No,"Yes, I have training in military culture",,"411 3rd street
Monett, Missouri 65708
(36.92191, -93.925038)",
Clark Community Mental Health Center,No,No,No,Yes,No,No,No,No,No,No,Yes,Yes,Yes,Yes,Yes,Yes,Yes,Yes,Yes,Yes,Yes,http://www.clarkmentalhealth.com/,4172356610,65723,United States,No,"Yes, I have training in military culture",,"104 W. Main street
Pierce City, Missouri 65723
(36.945146, -94.003074)",
Clark Community Mental Health Center,No,No,No,Yes,No,No,Yes,No,No,Yes,Yes,Yes,Yes,Yes,No,Yes,Yes,Yes,Yes,Yes,No,http://clarkmentalhealth.com,4172356610,65708,United States,No,"Yes, I have training in military culture",,"1701 North Central
Monett, Missouri 65708
(36.940787, -93.927145)",
Comforting Faith Counseling,No,No,No,Yes,No,No,No,No,No,No,No,No,Yes,No,Yes,Yes,Yes,Yes,No,No,No,http://www.hopelightcounseling.com,8165813730,64063,United States,No,"Not yet, but I would like to work with the military community",,"210 NE Chipman Rd
Lee's Summit, Missouri 64063
(38.924992, -94.376161)",
Community Counseling Center,No,Yes,No,Yes,No,No,No,No,No,No,Yes,Yes,No,Yes,No,Yes,Yes,No,No,Yes,No,,5739158911,63645,United States,No,"Yes, I have served in the military",,"311 Garrett Street
Fredericktown, Missouri 63645
(37.564709, -90.283082)",
Community Counseling Center,No,Yes,Yes,Yes,No,No,No,No,No,No,Yes,Yes,Yes,Yes,Yes,Yes,Yes,Yes,Yes,Yes,No,http://www.cccntr.com,5733341100,63703,United States,No,"Yes, I have served in the military",,"402 South Silver Springs Road
Cape Girardeau, Missouri 63703
(37.292892, -89.566254)",
"Community Counseling Services of Missouri, LLC",No,Yes,No,Yes,No,No,No,No,No,No,Yes,Yes,Yes,Yes,No,Yes,Yes,Yes,Yes,Yes,No,https://therapists.psychologytoday.com/rms/159157,4176604539,65483,United States,Yes,"Yes, I have training in military culture",,"1591 U.S. 63
Houston, Missouri 65483
(37.342924, -91.935328)",
"Community Counseling Services of Missouri, LLC",No,Yes,No,Yes,No,No,No,No,No,No,Yes,Yes,Yes,Yes,No,Yes,Yes,Yes,Yes,Yes,No,https://therapists.psychologytoday.com/rms/159157,4176604539,65560,United States,Yes,"Yes, I have training in military culture",,"103 W 4th Street
Salem, Missouri 65660
(37.645634, -91.53635)",
Community Services of Missouri Inc,No,Yes,No,No,No,No,No,No,No,No,Yes,No,No,No,No,No,No,No,No,No,No,http://www.dwiprograms.com/,6364419002,63376,United States,No,"Not yet, but I would like to work with the military community",,"1175 Cave Springs Estates Drive
St. Peters, Missouri 63376
(38.790027, -90.568932)",
Community Services of Missouri Inc,No,Yes,No,No,No,No,No,No,No,No,Yes,No,No,No,No,No,No,No,No,No,No,http://www.dwiprograms.com/,3148319002,63042,United States,No,"Not yet, but I would like to work with the military community",,"7231 North Lindbergh Road
Hazelwood, Missouri 63042
(38.783746, -90.355452)",
Community Services of Missouri Inc,No,Yes,No,No,No,No,No,No,No,No,Yes,No,No,No,No,No,No,No,No,No,No,http://www.dwiprograms.com/,4179264409,65711,United States,No,"Not yet, but I would like to work with the military community",,"1902 W 19th St
Mountain Grove, Missouri 65711
(37.145465, -92.262882)",
Community Services of Missouri Inc,No,Yes,No,No,No,No,No,No,No,No,Yes,No,No,No,No,No,No,No,No,No,No,http://www.dwiprograms.com/,6362409002,63366,United States,No,"Not yet, but I would like to work with the military community",,"9019 Veterans Memorial
O'Fallon, Missouri 63366
(38.801507, -90.712333)",
Community Services of Missouri Inc,No,Yes,No,No,No,No,No,No,No,No,Yes,No,No,No,No,No,No,No,No,No,No,http://www.dwiprograms.com/,5738881995,63857,United States,No,"Not yet, but I would like to work with the military community",,"102 Slicer Street
Kennett, Missouri 63857
(36.236487, -90.054532)",
Community Services of Missouri Inc,No,Yes,No,No,No,No,No,No,No,No,Yes,No,No,No,No,No,No,No,No,No,No,http://www.dwiprograms.com/,3149689002,63144,United States,No,"Not yet, but I would like to work with the military community",,"2322 S. Brentwood Blvd
Brentwood, Missouri 63144
(38.619026, -90.348479)",
Community Services of Missouri Inc,No,Yes,No,No,No,No,No,No,No,No,Yes,No,No,No,No,No,No,No,No,No,No,http://www.dwiprograms.com/,4179674409,65483,United States,No,"Not yet, but I would like to work with the military community",,"1591 U.S. 63
Houston, Missouri 65483
(37.310147, -91.961403)",Suite A
Community Services of Missouri Inc,No,Yes,No,No,No,No,No,No,No,No,Yes,No,No,No,No,No,No,No,No,No,No,http://www.dwiprograms.com/,3149849210,63131,United States,No,"Not yet, but I would like to work with the military community",,"11736 Manchester Road
Des Peres, Missouri 63131
(38.6004, -90.428934)",
Compass Counseling Services,No,No,No,Yes,No,No,No,No,No,No,No,Yes,Yes,No,Yes,Yes,Yes,Yes,Yes,Yes,No,http://ozarkscompass.com,4178482234,65536,United States,Yes,"Yes, I have training in military culture",,"702 Owens Dr
Lebanon, Missouri 65536
(37.671841, -92.665375)",
Compass Counseling Services,No,No,No,Yes,No,No,No,No,No,No,No,Yes,Yes,No,Yes,Yes,Yes,Yes,Yes,Yes,No,http://ozarkscompass.com,4178482234,65804,United States,Yes,"Yes, I have training in military culture",,"3050 S National Ave
Springfield, Missouri 65804
(37.158497, -93.277329)",Suite 104
"Compassionate Care Christian Counseling, LLC",No,No,No,Yes,No,No,No,No,No,No,Yes,Yes,Yes,Yes,Yes,Yes,Yes,Yes,Yes,Yes,No,,4178606517,65616,United States,No,"Not yet, but I would like to work with the military community",,"333 Corporate Place
Branson, Missouri 65616
(36.687656, -93.217957)",Suite R
Comprehensive Counseling Solutions,No,No,Yes,No,No,No,No,No,No,No,No,Yes,Yes,Yes,Yes,No,Yes,Yes,No,No,No,http://mychoicetherapist.com,8165459203,64429,United States,No,"Yes, I have training in military culture",,"517 Walnut
Cameron, Missouri 64429
(39.73551, -94.235974)",
Comprehensive Counseling Solutions,No,No,Yes,No,No,No,No,No,No,No,No,Yes,Yes,Yes,Yes,No,Yes,Yes,No,No,No,http://mychoicetherapist.com,8165459203,64506,United States,No,"Not yet, but I would like to work with the military community",,"3500 N Village Drive
St. Joseph, Missouri 64506
(39.817077, -94.812158)",Suite GL30
COMTREA,No,Yes,No,Yes,No,No,No,No,No,No,Yes,No,No,Yes,No,No,Yes,Yes,No,Yes,No,http://www.comtrea.org,6369312700,63028,United States,No,"Not yet, but I would like to work with the military community",,"110 North Mill Street
Festus, Missouri 63028
(38.220486, -90.393007)",
COMTREA,No,Yes,No,Yes,No,No,No,No,No,No,Yes,No,No,Yes,No,No,Yes,Yes,No,Yes,No,http://www.comtrea.org,6369312700,63010,United States,No,"Not yet, but I would like to work with the military community",,"21 Municipal Drive
Arnold, Missouri 63010
(38.445025, -90.403426)",
"Connie Knox Counseling, LLC",No,No,No,Yes,No,No,No,No,No,No,Yes,Yes,Yes,No,No,Yes,Yes,Yes,No,Yes,No,http://www.connieknox.com,6369288505,63017,United States,No,"Not yet, but I would like to work with the military community",,"14323 South Outer 40
Chesterfield, Missouri 63017
(38.640336, -90.513009)",Suite 607 S
"Connie Knox Counseling, LLC",No,No,No,Yes,No,No,No,No,No,No,Yes,Yes,Yes,No,No,Yes,Yes,Yes,No,Yes,No,http://www.connieknox.com,6369288505,63376,United States,No,"Not yet, but I would like to work with the military community",,"60 Gailwood Drive
St. Peters, Missouri 63376
(38.785541, -90.576409)",Suite C
"Consano Therapy, LLC",No,No,No,Yes,No,No,No,No,No,No,Yes,Yes,Yes,Yes,No,Yes,Yes,Yes,Yes,Yes,No,http://www.katiethompsonlpc.com,4142880498,63011,United States,No,"Not yet, but I would like to work with the military community",,"14614 Manchester Road
Ballwin, Missouri 63011
(38.592973, -90.528092)",Suite 204
"Consano Therapy, LLC",No,No,No,Yes,No,No,No,No,No,No,Yes,Yes,Yes,Yes,No,Yes,Yes,Yes,Yes,Yes,No,http://www.katiethompsonlpc.com,4142880498,63122,United States,No,"Not yet, but I would like to work with the military community",,"111 Prospect Ave
Kirkwood, Missouri 63122
(38.567714, -90.407528)",Suite 203J
Coplen Christian Counseling,No,No,No,Yes,No,No,No,No,No,No,No,Yes,Yes,No,Yes,Yes,Yes,No,No,No,No,http://www.CoplenCounseling.com,5734469665,65203,United States,No,"Not yet, but I would like to work with the military community",,"2600 Forum Blvd
Columbia, Missouri 65203
(38.924925, -92.364893)",Suite G
Corday Counseling,No,No,No,Yes,No,No,No,No,No,No,No,Yes,Yes,Yes,Yes,Yes,Yes,No,No,No,No,http://www.cordraycounseling.com,3142528959,63021,United States,No,"Not yet, but I would like to work with the military community",,"1230 Big Bend Rd
Ballwin, Missouri 63021
(38.567701, -90.50208)",
Corday Counseling,No,No,No,Yes,No,No,No,No,No,No,No,Yes,Yes,Yes,Yes,Yes,Yes,No,No,No,No,http://www.cordraycounseling.com,3142528959,63049,United States,No,"Not yet, but I would like to work with the military community",,"2608 Gravois
High Ridge, Missouri 63049
(38.466885, -90.523858)",
COS Counseling,No,No,No,Yes,No,No,No,No,No,No,No,Yes,No,Yes,Yes,Yes,Yes,Yes,Yes,No,No,,6369260102,63304,United States,No,"Not yet, but I would like to work with the military community",,"3910 S Old Hwy 94
St. Charles, Missouri 63304
(38.742373, -90.588578)",Suite 117
Counseling Associates,No,No,No,Yes,No,No,No,No,No,No,Yes,Yes,Yes,Yes,Yes,Yes,Yes,Yes,No,Yes,Yes,,4176671931,64804,United States,No,"Not yet, but I would like to work with the military community",,"2906 S. Main
Joplin, Missouri 64804
(37.058535, -94.514678)",
Counseling Associates,No,No,No,Yes,No,No,No,No,No,No,Yes,Yes,Yes,Yes,Yes,Yes,Yes,Yes,No,Yes,Yes,,4176671931,64772,United States,No,"Not yet, but I would like to work with the military community",,"904 W. Hunter
Nevada, Missouri 64772
(37.840579, -94.367201)",
Counseling Solutions of the Ozarks,No,No,No,Yes,No,No,No,No,No,No,Yes,Yes,Yes,Yes,No,Yes,Yes,Yes,Yes,Yes,Yes,http://counselingsolutionsoftheozarks.com/alison.html,4178278299,65804,United States,No,"Not yet, but I would like to work with the military community",,"1531 E. Sunshine
Springfield, Missouri 65804
(37.181733, -93.268299)",Suite W29
"Courtney Graves, LPC",No,No,Yes,No,No,No,No,No,No,No,Yes,Yes,Yes,No,No,No,Yes,Yes,No,No,No,,3146498683,63033,United States,No,"Not yet, but I would like to work with the military community",,"2075 Aqueduct
Florissant, Missouri 63033
(38.806438, -90.292053)",
Covenant Counseling,No,Yes,No,No,No,No,Yes,No,No,No,Yes,No,Yes,Yes,Yes,No,Yes,Yes,No,No,No,,5734691956,65109,United States,No,"Not yet, but I would like to work with the military community",,"1803 Sunvalley
Jefferson City, Missouri 65109
(38.556631, -92.20047)",Suite B
Covenant Counseling,No,No,No,Yes,No,No,No,No,No,No,No,Yes,Yes,Yes,Yes,Yes,Yes,Yes,Yes,Yes,No,,5734691956,65101,United States,Yes,"Not yet, but I would like to work with the military community",,"315 Ellis Blvd
Jefferson City, Missouri 65101
(38.552672, -92.194402)",Suite 303
Covenant Counseling STL (ages 14-19),No,Yes,No,Yes,No,No,No,No,No,No,Yes,Yes,No,No,Yes,Yes,Yes,Yes,No,No,No,http://www.covenantcounseilngstl.org,3146623883,63125,United States,No,"Not yet, but I would like to work with the military community",,"6220 S. Lindbergh Blvd
St. Louis, Missouri 63125
(38.516345, -90.342855)",Suite 201
Craig McAndrew,No,No,No,Yes,No,No,No,No,No,No,Yes,No,Yes,No,No,No,Yes,Yes,Yes,No,No,http://www.networktherapy.com/craigmcandrew/,9132065317,64112,United States,No,"Not yet, but I would like to work with the military community",,"4635 Wyandotte
Kansas City, Missouri 64112
(39.042885, -94.589422)",Suite 204
"Curtis Counseling, LLC",No,No,No,Yes,No,No,No,No,No,No,No,Yes,Yes,No,No,Yes,Yes,Yes,No,No,No,,4172521942,65793,United States,Yes,"Not yet, but I would like to work with the military community",,"2695 State Route U
Willow Springs, Missouri 65793
(36.955959, -91.883576)",
"Cynthia Butler, LCSW",No,No,Yes,No,No,No,No,No,No,No,No,Yes,Yes,Yes,No,No,Yes,Yes,No,Yes,No,,6604256151,64424,United States,Yes,"Not yet, but I would like to work with the military community",,"4118 Miller Street
Bethany, Missouri 64424
(40.265193, -94.0107)",
"Dana M. Powell and Associates, LLC",No,No,No,Yes,No,No,No,No,No,No,No,Yes,Yes,No,Yes,No,Yes,Yes,No,No,No,,6362326401,63103,United States,No,"Not yet, but I would like to work with the military community",,"2323 Locust St
St. Louis, Missouri 63103
(38.633898, -90.212636)",Suite 401
"Danielle Bush, LPC",No,No,No,Yes,No,No,No,No,No,No,No,Yes,Yes,Yes,No,Yes,Yes,Yes,Yes,Yes,No,,3147400195,63104,United States,No,"Not yet, but I would like to work with the military community",,"4353 Clayton Ave
St. Louis, Missouri 63104
(38.632929, -90.255573)",
"Danielle Kiesler, MFT",No,No,No,No,Yes,No,No,No,No,No,No,Yes,No,Yes,No,Yes,Yes,Yes,No,No,Yes,http://www.danceofchange.com,3148275448,63119,United States,No,"Not yet, but I would like to work with the military community",,"7902 Big Bend Blvd
Webster Groves, Missouri 63119
(38.594881, -90.334287)",
"David Guckes, LPC",No,No,No,Yes,No,No,No,No,No,No,Yes,Yes,Yes,No,Yes,Yes,Yes,Yes,No,No,No,http://daveglpc.com,3142391094,63304,United States,No,"Not yet, but I would like to work with the military community",,"4249 N. St Peters Parkway
St. Peters, Missouri 63304
(38.743967, -90.60563)",Suite B
"David Guckes, LPC",No,No,No,Yes,No,No,No,No,No,No,Yes,Yes,Yes,No,Yes,Yes,Yes,Yes,No,No,No,http://daveglpc.com,3142391094,63011,United States,No,"Not yet, but I would like to work with the military community",,"300 Ozark Trail Dr
Ellisville, Missouri 63011
(38.602542, -90.589267)",Suite 220
"Deb Allman, LPC",No,Yes,No,Yes,No,No,No,No,No,No,Yes,No,No,Yes,No,No,No,No,Yes,No,No,,4174516106,64850,United States,No,"Not yet, but I would like to work with the military community",,"118 W Spring St
Neosho, Missouri 64850
(36.86972, -94.368709)",
"Deborah Engel, LPC",No,No,No,Yes,No,No,No,No,No,No,No,No,Yes,Yes,No,Yes,Yes,Yes,No,No,No,,3142212286,63122,United States,No,"Not yet, but I would like to work with the military community",,"217 W. Woodbine Ave
St. Louis, Missouri 63122
(38.574259, -90.409564)",
"Department of Health Psychology, School of Health Professions, University of Missouri Health System",No,No,No,No,No,No,No,No,No,Yes,No,No,No,No,No,No,No,Yes,No,No,Yes,http://shp.missouri.edu/hp/index.php,5738821561,65212,United States,Yes,"Not yet, but I would like to work with the military community",,"1 Hospital Drive
Columbia, Missouri 65212
(38.937595, -92.326718)",
Dipoto Cunseling Group,No,No,No,Yes,No,No,No,No,No,No,Yes,Yes,Yes,Yes,Yes,Yes,Yes,Yes,No,Yes,No,http://www.dipotocounselinggroup.com,8162688501,64118,United States,Yes,"Not yet, but I would like to work with the military community",,"200 NE 54th Street
Kansas City, Missouri 64118
(39.192322, -94.578607)",Suite 202
"D. Kay Schaffer, LPC, LLC",No,No,No,Yes,No,No,No,No,No,No,No,No,Yes,No,No,No,Yes,Yes,No,Yes,No,,3145184234,63028,United States,No,"Not yet, but I would like to work with the military community",,"1237 American Legion Dr.
Festus, Missouri 63028
(38.202713, -90.39701)",
Door To Hope Counseling & Education (SATOP),No,Yes,No,Yes,No,No,No,No,No,No,Yes,No,No,No,No,No,No,No,No,No,No,http://www.satopdoortohope.com/,4177249767,65672,United States,No,"Not yet, but I would like to work with the military community",,"101 State Drive
Hollister, Missouri 65672
(36.600032, -93.242802)",Suite J
Door To Hope Counseling & Education (SATOP),No,Yes,No,Yes,No,No,No,No,No,No,Yes,No,No,No,No,No,No,No,No,No,No,http://www.satopdoortohope.com/,4177249767,65714,United States,No,"Not yet, but I would like to work with the military community",,"234 Village Center Drive
Nixa, Missouri 65714
(37.040542, -93.301421)",
"Dr. Gary C. Kitto & Associates, LLC",No,No,No,Yes,No,No,No,No,No,No,Yes,Yes,Yes,Yes,Yes,Yes,Yes,Yes,Yes,Yes,Yes,,6608267909,65301,United States,Yes,"Yes, I have training in military culture",,"100 South Limit Ave
Sedalia, Missouri 65301
(38.71373, -93.250066)",
"Dustin Wall, LPC",No,No,No,Yes,No,No,No,No,No,No,Yes,Yes,No,No,No,Yes,Yes,Yes,No,No,No,http://www.pollockgroupkc.com/,8168221922,64114,United States,No,"Not yet, but I would like to work with the military community",,"8080 Ward Parkway
Kansas City, Missouri 64114
(38.983855, -94.606809)",Suite 230
Dysart Counseling Services,No,No,No,Yes,No,No,No,No,No,No,Yes,Yes,No,No,No,Yes,Yes,No,No,No,No,http://www.dysartcounseling.com/,4172242940,65804,United States,No,"Not yet, but I would like to work with the military community",,"1909 E. Bennett
Springfield, Missouri 65804
(37.18885, -93.258994)",Suite 113
"Elizabeth Bennett, MA, LPC",No,No,No,Yes,No,No,No,No,No,Yes,Yes,Yes,Yes,Yes,Yes,Yes,Yes,Yes,Yes,Yes,Yes,,3147291200,63123,United States,No,"Yes, I have training in military culture",,"11144 Tesson Ferry Rd
Afton, Missouri 63123
(38.527058, -90.35089)",Suite 200
Encourage Counseling Services,No,No,No,No,No,No,Yes,No,No,No,No,Yes,No,No,Yes,No,Yes,No,No,No,No,http://www.encouragekc.com,8162179190,64164,United States,No,"Not yet, but I would like to work with the military community",,"4214 NW Cookingham Road
Kansas City, Missouri 64164
(39.311005, -94.629485)",
Equality Counseling (In-Home Counseling),No,No,No,No,No,No,Yes,No,No,No,No,Yes,Yes,No,No,Yes,Yes,Yes,Yes,No,No,,8164423481,64079,United States,No,"Not yet, but I would like to work with the military community",,"Platte City, Missouri 64079
(39.361402, -94.783009)",
"Evergreen Behavioral Services, LLC",No,No,Yes,Yes,No,No,Yes,No,No,No,Yes,Yes,Yes,Yes,Yes,Yes,Yes,Yes,Yes,Yes,No,http://evergreen-behavioral.com/,5735820292,65265,United States,Yes,"Yes, I have training in military culture",,"116 South Jefferson
Mexico, Missouri 65265
(39.172038, -91.882621)",
"Family Counseling Center, Inc.",No,Yes,Yes,No,No,No,No,No,No,No,Yes,No,No,No,No,No,No,No,No,No,No,www.familycounselingcenter.org,5736514177,63701,United States,Yes,"Not yet, but I would like to work with the military community",,"20 South Sprigg Street
Cape Girardeau, Missouri 63701
(37.303988, -89.527007)",
Family Guidance Center for Behavioral Health,No,Yes,No,Yes,No,No,No,No,No,No,Yes,No,No,No,No,No,No,No,No,No,No,www.familyguidance.org,8163641501,64501,United States,Yes,"Not yet, but I would like to work with the military community",,"901 Felix
St. Joseph, Missouri 64501
(39.766648, -94.849411)",
Family Guidance Center for Behavioral Health,No,No,Yes,No,No,No,No,No,No,No,No,Yes,Yes,Yes,No,Yes,Yes,Yes,Yes,Yes,No,www.familyguidance.org,8163641502,64506,United States,Yes,"Not yet, but I would like to work with the military community",,"724 North 22nd Street
St. Joseph, Missouri 64506
(39.773824, -94.834214)",
Family Guidance Center for Behavioral Health,No,Yes,No,No,No,No,No,No,No,No,Yes,No,No,No,No,No,No,No,No,No,No,www.familyguidance.org,8163641501,64429,United States,Yes,"Not yet, but I would like to work with the military community",,"101 West 3rd Street
Cameron, Missouri 64429
(39.741318, -94.238462)",
Family Psychology of Springfield,No,No,No,No,No,No,No,No,No,Yes,No,Yes,No,Yes,Yes,Yes,Yes,Yes,No,Yes,No,http://www.familypsychologyspringfield.com,4178868262,65804,United States,Yes,"Not yet, but I would like to work with the military community",,"2053 S. Waverly Ave
Springfield, Missouri 65804
(37.176261, -93.263826)",Suite D
Family Resource Center,No,No,No,Yes,No,No,No,No,No,No,No,Yes,Yes,Yes,Yes,No,Yes,Yes,No,No,No,http://frcmo.org,3145349350,63139,United States,No,"Not yet, but I would like to work with the military community",,"3309 S. Kingshighway
St. Louis, Missouri 63139
(38.599176, -90.270339)",
"Family Therapy and More, LLC",No,No,No,No,Yes,No,No,No,No,No,No,No,Yes,No,Yes,Yes,Yes,Yes,No,No,No,,5733405167,65203,United States,No,"Not yet, but I would like to work with the military community",,"2201 Chapel Plaza Ct
Columbia, Missouri 65203
(38.928219, -92.364624)",Suite 101
Felix Vincenz,No,No,No,No,No,No,No,No,No,Yes,Yes,Yes,No,Yes,No,Yes,No,Yes,No,No,No,http://www.creativechangestl.com/,3149627788,63139,United States,No,"Yes, I have training in military culture",,"8772 Big Bend Blvd
Webster Groves, Missouri 63139
(38.58203, -90.359898)",
First Call - Alcohol/Drug Prevention & Recovery,No,No,Yes,No,No,No,No,No,No,No,Yes,No,Yes,No,No,Yes,No,No,No,No,No,http://www.firstcallkc.org,8163615900,64114,United States,No,"Not yet, but I would like to work with the military community",,"9091 State Line Rd
Kansas City, Missouri 64114
(38.964371, -94.608108)",
First Choice Mental Health,No,No,No,No,No,No,No,No,Yes,No,No,Yes,Yes,Yes,Yes,Yes,Yes,Yes,Yes,Yes,No,http://www.firstchoicementalhealth.com,6606657500,63501,United States,No,"Not yet, but I would like to work with the military community",,"1 Crown Drive
Kirksville, Missouri 63501
(40.205207, -92.573976)",Suite 104
"Frances V. Totta, LPC",No,No,No,Yes,No,No,No,No,No,No,No,No,No,No,Yes,Yes,Yes,No,No,No,No,http://TherapistLocator.net,8164446750,64116,United States,No,"Not yet, but I would like to work with the military community",,"4131 N. Mulberry Drive
Kansas City, Missouri 64116
(39.168469, -94.597559)",
"Fuelling & Associates, LLC",No,No,Yes,Yes,No,No,No,No,No,No,Yes,Yes,Yes,No,No,Yes,Yes,Yes,No,No,No,http://www.fuellingandassociates.com/,6604296678,64735,United States,Yes,"Not yet, but I would like to work with the military community",,"115 E. Grandriver
Clinton, Missouri 64735
(38.368163, -93.775935)",
"Fuelling & Associates, LLC",No,No,Yes,No,No,No,No,No,No,No,Yes,Yes,Yes,No,No,Yes,Yes,Yes,No,No,No,http://www.fuellingandassociates.com/,6604296678,64093,United States,Yes,"Not yet, but I would like to work with the military community",,"407 E. Russell Avenue
Warrensburg, Missouri 64093
(38.773001, -93.732346)",Suite 5A
"Gary Selbert, LPC",No,No,No,Yes,No,No,No,No,No,No,Yes,Yes,No,No,Yes,Yes,Yes,Yes,No,No,No,,3149608639,63628,United States,No,"Yes, I have training in military culture",,"1042 Lafitte Drive
Bonne Terre, Missouri 63628
(37.897945, -90.595614)",
Geo Counseling,No,No,No,Yes,No,No,No,No,No,No,No,Yes,No,No,Yes,Yes,Yes,No,No,No,No,http://geocounseling.com,9132683597,64137,United States,No,"Not yet, but I would like to work with the military community",,"5354 Longview Road
Kansas City, Missouri 64137
(38.916396, -94.528487)",
Good-Nous Family Counseling Center,No,No,No,No,No,No,No,No,No,Yes,Yes,Yes,Yes,Yes,Yes,Yes,Yes,Yes,Yes,Yes,Yes,http://goodnous4u.com,4173262418,65613,United States,Yes,"Not yet, but I would like to work with the military community",,"2085 S. Boston Pl
Bolivar, Missouri 65613
(37.606535, -93.405614)",
"Greater Ozarks Rural Psychologists, LLC",No,No,No,No,No,No,No,No,No,Yes,No,Yes,Yes,Yes,No,Yes,Yes,Yes,Yes,Yes,Yes,http://www.go-rp.com,4179278188,65704,United States,No,"Not yet, but I would like to work with the military community",,"827 W Commercial St
Mansfield, Missouri 65704
(37.109897, -92.593641)",
Guided Solutions Counseling & Mediation,No,No,No,Yes,No,No,No,No,No,No,No,No,No,Yes,No,Yes,Yes,Yes,Yes,No,No,http://www.gscm.us,6363222225,63028,United States,No,"Not yet, but I would like to work with the military community",,"1170 East Gannon
Festus, Missouri 63028
(38.211025, -90.40055)",Suite A
Hannibal Council on Alcohol & Drug Abuse,No,Yes,No,No,No,Yes,No,No,No,No,Yes,No,No,No,No,No,No,No,No,No,No,http://www.hcada.org,5735818828,65265,United States,No,"Not yet, but I would like to work with the military community",,"201 E Monroe Street
Mexico, Missouri 65265
(39.172966, -91.880943)",Suite 103
Hannibal Council on Alcohol & Drug Abuse,No,Yes,No,No,No,No,No,No,No,No,Yes,No,No,No,No,No,No,No,No,No,No,http://hcada.org,5732481196,63401,United States,No,"Not yet, but I would like to work with the military community",,"146 Communication Drive
Hannibal, Missouri 63401
(39.702233, -91.392039)",
Harness Counseling & Consulting,No,No,No,Yes,No,No,No,No,No,No,No,Yes,Yes,No,No,Yes,Yes,Yes,No,No,No,,8165191850,64152,United States,No,"Not yet, but I would like to work with the military community",,"170 English Landing Drive
Parkville, Missouri 64152
(39.188581, -94.685347)",Suite 221D
Harry S Truman VA Medical Center,No,No,No,No,No,No,No,No,No,No,Yes,Yes,No,No,No,Yes,Yes,Yes,Yes,Yes,Yes,http://www.columbiamo.va.gov/,5738146000,65201,United States,Yes,"Yes, I have training in military culture",,"800 Hospital Drive
Columbia, Missouri 65201
(38.9376, -92.327559)",
Healing on Humphrey,No,No,No,Yes,No,No,No,No,No,No,No,No,No,No,No,No,Yes,Yes,Yes,No,No,http://www.drcheska.com/Kathryn_Stinson__PLPC.html,3148276803,63116,United States,No,"Not yet, but I would like to work with the military community",,"4049 Humphrey Street
St. Louis, Missouri 63116
(38.599213, -90.254947)",
"Health and Healing, LLC",No,No,Yes,No,No,No,No,No,No,No,No,Yes,Yes,Yes,No,Yes,No,Yes,Yes,Yes,No,,6603950180,63552,United States,Yes,"Not yet, but I would like to work with the military community",,"303 Weller Street
Macon, Missouri 63552
(39.750842, -92.468596)",
Heartland Counseling Center,No,No,No,Yes,No,No,No,No,No,No,No,No,No,No,No,Yes,Yes,Yes,No,No,No,http://www.heartlandcounselingcenter.com,5738031402,63703,United States,Yes,"Yes, I have training in military culture",,"2909 Independence Street
Cape Girardeau, Missouri 63703
(37.307994, -89.569062)",
HireCoach,No,No,No,No,Yes,No,No,No,No,No,Yes,Yes,Yes,No,No,Yes,Yes,No,No,No,No,http://www.CounselorStLouis.com,6365618839,63367,United States,No,"Not yet, but I would like to work with the military community",,"1000 Lake St Louis Blvd
St. Louis, Missouri 63367
(38.789064, -90.75693)",
Hope Counseling Connections,No,Yes,No,Yes,No,No,No,No,No,No,Yes,Yes,Yes,Yes,Yes,Yes,Yes,Yes,Yes,Yes,No,https://hopeconnectionscounseling.com/index.php,5734334846,65583,United States,No,"Not yet, but I would like to work with the military community",,"704 Rte 66
Waynesville, Missouri 65583
(37.821671, -92.213679)",Suite 207
H.O.U.S.E. Inc.,No,Yes,No,No,No,No,No,No,No,No,Yes,No,No,No,No,No,No,No,No,No,No,http://house-inc.org,4176238933,64870,United States,No,"Not yet, but I would like to work with the military community",,"24706 State Hwy 171
Webb City, Missouri 64870
(37.142533, -94.505562)",
H.O.U.S.E. Inc.,No,Yes,No,No,No,No,No,No,No,No,Yes,No,No,No,No,No,No,No,No,No,No,http://house-inc.org,4176238933,64870,United States,No,"Not yet, but I would like to work with the military community",,"24730 State Hwy 171
Webb City, Missouri 64870
(37.142535, -94.505645)",
House of Refuge Ministries,No,No,No,Yes,No,No,No,No,No,No,No,Yes,Yes,Yes,Yes,No,Yes,Yes,No,Yes,No,,3147376575,63301,United States,No,"Not yet, but I would like to work with the military community",,"1380 S Fifth Street
St. Charles, Missouri 63301
(38.770803, -90.492996)",
Ingrid Albers,No,Yes,No,No,No,No,No,No,No,No,Yes,No,No,No,No,No,No,No,No,No,No,http://www.clarityrecovery.org,8005207758,65616,United States,No,"Not yet, but I would like to work with the military community",,"360 Rinehart Road
Branson, Missouri 65616
(36.691622, -93.216906)",
Innergetics Counseling,No,No,No,Yes,No,No,No,No,No,No,Yes,Yes,Yes,Yes,No,Yes,Yes,Yes,Yes,Yes,No,http://therapists.psychologytoday.com/rms/149403,8165459428,64152,United States,No,"Not yet, but I would like to work with the military community",,"8341 NW Mace Rd
Kansas City, Missouri 64152
(39.246688, -94.682402)",Suite 110
"Intentional Alternatives, LLC",No,No,No,Yes,No,No,No,No,No,No,No,Yes,Yes,No,No,No,Yes,Yes,Yes,Yes,No,http://www.IntentionalAlternatives.com,3148372022,63033,United States,Yes,"Yes, I have training in military culture",,"11650 New Halls Ferry Road
Florissant, Missouri 63033
(38.778434, -90.275778)",
Jackson Medical Center ,No,No,No,No,No,No,No,No,No,Yes,Yes,Yes,Yes,No,Yes,Yes,Yes,Yes,No,Yes,No,,5732047771,63755,United States,Yes,"Yes, I have training in military culture",,"2387 West Jackson Blvd
Jackson, Missouri 63755
(37.384255, -89.69955)",
"James Childers, LPC",No,No,No,Yes,No,No,No,No,No,No,Yes,Yes,No,Yes,No,Yes,Yes,Yes,Yes,Yes,Yes,,4173477730,64804,United States,Yes,"Yes, I have served in the military",,"5760 Fairway Drive
Loma Linda, Missouri 64804
(36.987219, -94.593466)",
"Jane Brenneke, LPC",No,No,No,Yes,No,No,No,No,No,No,No,Yes,Yes,Yes,No,Yes,Yes,Yes,Yes,Yes,No,http://www.cccntr.com,5737834104,63645,United States,No,"Not yet, but I would like to work with the military community",,"309 Garrett Street
Fredericktown, Missouri 63645
(37.564703, -90.283134)",
"Janice  Bunch, LPC",No,No,No,Yes,No,No,No,No,No,No,Yes,Yes,Yes,Yes,No,Yes,Yes,Yes,No,No,No,,5733320416,63703,United States,No,"Not yet, but I would like to work with the military community",,"340 S. Broadview
Cape Girardeau, Missouri 63703
(37.299625, -89.556337)",
"Jay Musgrave, LPC",No,No,No,Yes,No,No,No,No,No,No,Yes,Yes,Yes,Yes,Yes,Yes,Yes,Yes,No,Yes,No,,5736495665,63845,United States,No,"Yes, I have training in military culture",,"209 N. Washington
East Prairie, Missouri 63845
(36.780318, -89.386655)",
"Jay Musgrave, LPC",No,No,No,Yes,No,No,No,No,No,No,Yes,Yes,Yes,Yes,Yes,Yes,Yes,Yes,No,Yes,No,,5736514206,63701,United States,No,"Yes, I have training in military culture",,"1221 Kingsway Drive
Cape Girardeau, Missouri 63701
(37.322964, -89.55821)",Suite 5
"Jean E. Moretto, Inc",No,No,No,Yes,No,No,No,No,No,No,No,Yes,No,Yes,Yes,Yes,Yes,Yes,Yes,Yes,No,http://walterswalk.com,3147312433,63042,United States,No,"Yes, I have training in military culture",,"737 Dunn Road
Hazelwood, Missouri 63042
(38.782166, -90.374177)",Suite B
Jefferson Barracks,No,No,No,No,No,No,No,No,No,No,Yes,Yes,No,Yes,Yes,Yes,Yes,Yes,Yes,Yes,Yes,http://www.stlouis.va.gov/,3146524100,63125,United States,Yes,"Yes, I have training in military culture",,"1 Jefferson Barracks Drive
St. Louis, Missouri 63125
(38.509148, -90.28946)",
"Jennifer Edmondson, LPC",No,No,No,Yes,No,No,No,No,No,No,No,Yes,No,Yes,No,No,Yes,Yes,Yes,No,No,http://www.familyroompsych.com/,3146901784,63123,United States,No,"Not yet, but I would like to work with the military community",,"6220 S. Lindbergh Blvd
St. Louis, Missouri 63123
(38.515935, -90.341047)",
"Jennifer Edmondson, LPC",No,No,No,Yes,No,No,No,No,No,No,No,Yes,No,Yes,No,No,Yes,Yes,Yes,No,No,http://www.familyroompsych.com/,3146901784,63123,United States,No,"Not yet, but I would like to work with the military community",,"5106 Hampton Avenue
St. Louis, MO 63109
(38.585059, -90.292797)",
"Jennifer Salmons, LPC LLC",No,No,No,Yes,No,No,No,No,No,No,Yes,Yes,Yes,Yes,No,Yes,Yes,Yes,Yes,Yes,Yes,,8165905464,64153,United States,Yes,"Not yet, but I would like to work with the military community",,"7280 NW 87th Terrace
Kansas City, Missouri 64153
(39.253334, -94.663645)",Ste 210 
"Joan DiPretore, LPC",No,No,No,Yes,No,No,No,No,No,No,No,Yes,Yes,Yes,Yes,Yes,Yes,Yes,Yes,Yes,No,,3148148223,63104,United States,No,"Not yet, but I would like to work with the military community",,"2316 Rutger Street
St. Louis, Missouri 63104
(38.61905, -90.218143)",
"Jody Amberg, LPC",No,No,No,Yes,No,No,No,No,No,No,Yes,Yes,Yes,No,No,No,Yes,Yes,Yes,No,No,,3146161163,63025,United States,No,"Not yet, but I would like to work with the military community",,"700 Niehoff Dr
Eureka, Missouri 63025
(38.488837, -90.631242)",
John Cochran,No,No,No,No,No,No,No,No,No,No,Yes,Yes,No,Yes,Yes,No,Yes,Yes,Yes,Yes,No,http://www.stlouis.va.gov/,3146524100,63106,United States,Yes,"Yes, I have training in military culture",,"915 North Grand BLVD
St. Louis, Missouri 63106
(38.642263, -90.22939)",
John J. Pershing VA Medical Center,No,No,No,No,No,No,No,No,No,No,Yes,Yes,No,No,No,Yes,Yes,Yes,Yes,Yes,Yes,http://www.poplarbluff.va.gov/,5736864151,63901,United States,Yes,"Yes, I have training in military culture",,"1500 North Westwood Blvd
Poplar Bluff, Missouri 63901
(36.771449, -90.417906)",
John Small,No,Yes,No,No,Yes,No,No,No,No,Yes,Yes,Yes,No,Yes,No,Yes,Yes,Yes,No,Yes,No,,5734428550,65201,United States,No,"Not yet, but I would like to work with the military community",,"2100 East Broadway
Columbia, Missouri 65201
(38.948574, -92.307283)",Suite 315
Joy4Ever Counseling,No,No,No,Yes,No,No,No,No,No,No,Yes,Yes,Yes,No,Yes,Yes,Yes,No,No,No,No,,6365416917,63301,United States,No,"Not yet, but I would like to work with the military community",,"2850 West Clay
St. Charles, Missouri 63301
(38.786014, -90.527242)",Suite 255
"Judy Gardner Counseling, LLC",No,No,No,Yes,No,No,No,No,No,No,Yes,No,Yes,Yes,No,Yes,Yes,Yes,No,No,No,http://www.newhopecounselingkc.com,8167183528,64063,United States,Yes,"Not yet, but I would like to work with the military community",,"656 SE Bayberry Lane
Lee's Summit, Missouri 64063
(38.907903, -94.35917)",Suite 105
"Judy Gardner Counseling, LLC",No,No,No,Yes,No,No,No,No,No,No,Yes,No,Yes,Yes,No,Yes,Yes,Yes,No,No,No,http://www.newhopecounselingkc.com,8167183528,65301,United States,Yes,"Not yet, but I would like to work with the military community",,"416 South Ohio Avenue
Sedalia, Missouri 65301
(38.707145, -93.228273)",
"Julie Hardy, LCSW",No,No,Yes,No,No,No,No,No,No,No,No,Yes,Yes,No,No,Yes,Yes,Yes,Yes,Yes,Yes,,6608291133,65301,United States,Yes,"Not yet, but I would like to work with the military community",,"3001 Clinton Road
Sedalia, Missouri 65301
(38.685663, -93.248901)",
Kansas City Therapeutic Institute,No,No,No,Yes,No,No,No,No,No,No,Yes,Yes,Yes,Yes,Yes,Yes,Yes,Yes,Yes,Yes,No,,8163823000,64152,United States,No,"Not yet, but I would like to work with the military community",,"7211 NW 83 St
Kansas City, Missouri 64152
(39.244197, -94.662069)",Suite 250
Kansas City VA Medical Center,No,No,No,No,No,No,No,No,No,No,Yes,Yes,No,No,No,Yes,Yes,Yes,Yes,Yes,Yes,http://www.kansascity.va.gov/,8168614700,64128,United States,Yes,"Yes, I have training in military culture",,"4801 Linwood Blvd
Kansas City, Missouri 64128
(39.067263, -94.52786)",
"Kathleen Leach-Ross, LPC",No,No,No,Yes,No,No,No,No,No,No,No,Yes,No,Yes,No,No,Yes,Yes,Yes,Yes,No,,3148785570,63141,United States,No,"Not yet, but I would like to work with the military community",,"12150 Royal Valley Drive
Creve Coeur, Missouri 63141
(38.663477, -90.450874)",
"Ken Ostercamp, LPC",No,No,No,Yes,No,No,No,No,No,No,Yes,Yes,Yes,No,No,No,Yes,Yes,Yes,Yes,No,,5733560991,65201,United States,No,"Not yet, but I would like to work with the military community",,"2100 East Broadway
Columbia, Missouri 65201
(38.948574, -92.307283)",Suite 205
"Ken Thom Counseling, Inc",No,No,No,Yes,No,No,No,No,No,No,Yes,Yes,Yes,Yes,Yes,Yes,Yes,Yes,Yes,No,No,http://kenthomcounseling.com,6605622531,64468,United States,Yes,"Yes, I have training in military culture",,"515 West Cooper
Maryville, Missouri 64468
(40.34314, -94.87877)",
"Keri R. Burns, LPC",No,No,No,Yes,No,No,No,No,No,No,No,Yes,Yes,No,No,Yes,Yes,Yes,No,No,No,http://kburnstherapy.com,3146095377,63105,United States,No,"Not yet, but I would like to work with the military community",,"230 S. Bemiston
Clayton, Missouri 63105
(38.646558, -90.337378)",Suite 430
Kerith Brook Family Counseling,No,No,No,Yes,No,No,No,No,No,No,Yes,Yes,Yes,Yes,No,Yes,Yes,Yes,Yes,Yes,No,,4174690799,65793,United States,No,"Yes, I have served in the military",,"1147 CR 5710
Willow Springs, Missouri 65793
(36.988675, -92.058929)",
"Kim Robinson, LPC",No,No,No,Yes,No,No,No,No,No,No,Yes,Yes,Yes,No,No,Yes,Yes,Yes,No,Yes,No,,5732487176,63401,United States,No,"Not yet, but I would like to work with the military community",,"56359 Meyer Trail
Hannibal, Missouri 63401
(39.665957, -91.414179)",
"Kristen Stephenson-Owens, LPC",No,No,No,Yes,No,No,No,No,No,No,No,No,No,No,Yes,No,Yes,Yes,No,No,No,http://kristen-owens.com/,3142776633,63141,United States,No,"Not yet, but I would like to work with the military community",,"745 Craig Rd
Creve Coeur, Missouri 63141
(38.669484, -90.436222)",Suite 210
"Kylie Swyden, MFT",No,No,No,No,Yes,No,No,No,No,No,No,Yes,No,No,Yes,Yes,Yes,Yes,Yes,No,No,http://www.hktherapygroup.com,8166071763,64083,United States,No,"Not yet, but I would like to work with the military community",,"207 South Washington Street
Raymore, Missouri 64083
(38.802353, -94.453032)",
"Lace Counseling Center, LLC",No,No,No,Yes,No,No,No,No,No,No,No,Yes,Yes,No,Yes,No,Yes,Yes,Yes,Yes,Yes,,4178594429,65706,United States,No,"Not yet, but I would like to work with the military community",,"310 North Marshall
Marshfield, Missouri 65706
(37.341026, -92.906835)",
"Lace Counseling Center, LLC",No,No,No,Yes,No,No,No,No,No,No,No,Yes,Yes,No,Yes,No,Yes,Yes,Yes,Yes,Yes,,4178594429,65706,United States,No,"Not yet, but I would like to work with the military community",,"110 East Commercial Street
Marshfield, Missouri 65706
(37.335927, -92.906797)",Suite 102
Ladell  Flowers,No,Yes,No,No,No,No,No,No,No,No,Yes,Yes,No,Yes,Yes,Yes,No,No,No,No,No,http://www.dismashousekc.com,8165316050,64111,United States,No,"Not yet, but I would like to work with the military community",,"3100 Main
Kansas City, Missouri 64111
(39.071023, -94.585325)",Suite 301
Lafayette House,No,Yes,Yes,No,No,Yes,Yes,No,No,No,Yes,No,No,Yes,No,Yes,Yes,Yes,Yes,No,No,http://www.lafayettehouse.org,4177821772,64801,United States,No,"Not yet, but I would like to work with the military community",,"1809 S. Connor Ave
Joplin, Missouri 64801
(37.072017, -94.523117)",
Lakeside Counseling,No,No,No,Yes,No,No,No,No,No,No,No,Yes,Yes,Yes,Yes,Yes,Yes,Yes,No,Yes,No,,8165827785,64089,United States,Yes,"Yes, I have training in military culture",,"207 Doubletree
Smithville, Missouri 64089
(39.378812, -94.597025)",
"Lawrence E O'Renick, MA, LPC",No,No,No,Yes,No,No,No,No,No,No,Yes,Yes,Yes,Yes,No,Yes,Yes,Yes,Yes,Yes,No,,8168042839,64064,United States,Yes,"Yes, I have served in the military",,"4045 NE. Lakewood Way
Lee's Summit, Missouri 64064
(38.985452, -94.35597)",Suite 130
"Lee  Harris, LPC",No,No,No,Yes,No,No,No,No,No,No,No,Yes,Yes,Yes,No,Yes,Yes,Yes,Yes,Yes,No,http://www.inspiredhorizons.org,8165100220,64118,United States,No,"Not yet, but I would like to work with the military community",,"5500 N. Oak Trafficway
Kansas City, Missouri 64118
(39.194556, -94.576542)",Suite 204
Leonard E. Bradley,No,Yes,No,No,No,No,No,No,No,No,Yes,No,Yes,No,Yes,Yes,Yes,Yes,No,No,No,,3145744081,,United States,No,"Not yet, but I would like to work with the military community",,"233 Savoy Drive
Lake St Louis, Missouri 63361-1217
(38.799502, -90.788518)",
Life Counseling Centers,No,No,No,Yes,No,No,No,No,No,No,No,Yes,Yes,Yes,Yes,No,Yes,Yes,No,Yes,No,http://Lifecounselingcenters.com,3147208730,63141,United States,No,"Not yet, but I would like to work with the military community",,"655 Craig Rd
Creve Coeur, Missouri 63141
(38.667709, -90.437047)",Suite 318
"Life Enhancement Center, LLC",No,No,No,Yes,No,No,No,No,No,No,No,Yes,Yes,No,No,Yes,Yes,Yes,Yes,Yes,No,,8164578234,64114,United States,No,"Not yet, but I would like to work with the military community",,"8080 Ward Parkway
Kansas City, Missouri 64114
(38.983855, -94.606809)",Suite 334
"LifeQuest Christian Counseling Services, Inc",No,No,No,Yes,No,No,No,No,No,No,Yes,Yes,Yes,Yes,Yes,Yes,Yes,No,No,No,No,http://www.lqccs.org/,3148309970,63031,United States,No,"Not yet, but I would like to work with the military community",,"203 Dunn Rd
Florissant, Missouri 63031
(38.775859, -90.334021)",
"Life Restoration Counseling, LLC",No,Yes,No,Yes,No,No,No,No,No,No,Yes,Yes,No,No,Yes,No,Yes,No,No,No,No,,6362930044,63303,United States,No,"Not yet, but I would like to work with the military community",,"1550 Wall Street
St. Peters, Missouri 63303
(38.779505, -90.52473)",Suite 231
Lighthouse Counseling Services Inc.,No,No,No,Yes,No,No,No,No,No,No,No,Yes,Yes,No,No,Yes,Yes,Yes,No,No,No,http://www.claytonbehavioral.com,3144032113,63124,United States,No,"Not yet, but I would like to work with the military community",,"9890 Clayton Rd
Ladue, Missouri 63124
(38.637755, -90.391356)",Suite 100
"Linda Barbour, LPC",No,No,No,Yes,No,No,No,No,No,No,Yes,Yes,Yes,Yes,No,Yes,Yes,Yes,Yes,Yes,Yes,,6608271220,65301,United States,Yes,"Yes, I have training in military culture",,"2018 W. 14th
Sedalia, Missouri 65301
(38.700793, -93.253417)",
Lisa Doyle,No,Yes,No,No,No,No,No,No,No,No,Yes,Yes,No,Yes,No,No,No,No,No,No,No,http://www.aaesllc.webs.com,8167494060,64508,United States,No,"Not yet, but I would like to work with the military community",,"3442 Ashland Ave
St. Joseph, Missouri 64508
(39.800869, -94.816164)",
"Lora Winn Rochelle DBA Professional Counseling Service, LLC",No,No,No,Yes,No,No,No,No,No,No,Yes,Yes,Yes,Yes,Yes,Yes,Yes,Yes,Yes,Yes,No,,8163096322,64131,United States,No,"Yes, I have training in military culture",,"400 East Redbridge
Kansas City, Missouri 64131
(38.92667, -94.587141)",Suite 304
"Lora Winn Rochelle DBA Professional Counseling Service, LLC",No,No,No,Yes,No,No,No,No,No,No,Yes,Yes,Yes,Yes,Yes,Yes,Yes,Yes,Yes,Yes,No,,8163096322,64145,United States,No,"Yes, I have training in military culture",,"12104 Madison Court
Kansas City, Missouri 64145
(38.908973, -94.603914)",
"Marcio Guzman, LPC",No,No,No,Yes,No,No,No,No,No,No,No,Yes,No,No,No,No,Yes,Yes,No,No,No,,6309918315,63026,United States,No,"Not yet, but I would like to work with the military community",,"1855 Bowles Ave
Fenton, Missouri 63026
(38.540149, -90.471352)",Suite 210
"Margaret Daniels, MS, LPC, NCC",No,No,No,Yes,No,No,No,No,No,No,Yes,Yes,Yes,Yes,No,Yes,Yes,Yes,No,Yes,No,,4173127282,64850,United States,No,"Not yet, but I would like to work with the military community",,"735 W Harmony
Neosho, Missouri 64850
(36.869023, -94.37956)",Suite B
"Mark Tobin Counseling, LLC",No,No,No,Yes,No,No,No,No,No,No,No,Yes,Yes,Yes,No,No,Yes,Yes,Yes,Yes,Yes,http://matktobin.com,3147910775,63141,United States,No,"Not yet, but I would like to work with the military community",,"933 Gardenview Office Parkway
St. Louis, Missouri 63141
(38.674085, -90.40711)",
"Melissa Williams, LPC",No,No,No,Yes,No,No,No,No,No,No,Yes,Yes,Yes,Yes,Yes,Yes,Yes,Yes,Yes,Yes,Yes,,5738748818,65201,United States,No,"Not yet, but I would like to work with the military community",,"1310 Old 63 S
Columbia, Missouri 65201
(38.934242, -92.30962)",Suite 1
mentalkevlar (In Home Counseling Available),No,No,No,Yes,No,No,No,No,No,No,Yes,Yes,Yes,Yes,Yes,Yes,Yes,Yes,Yes,Yes,Yes,,9137050033,65584,United States,No,"Yes, I have training in military culture",,"St. Robert, Missouri 65584
(37.827013, -92.133017)",
"Michele Meyer, LPC",No,No,No,Yes,No,No,No,No,No,No,No,No,No,No,No,No,Yes,Yes,No,No,Yes,,3149839230,63146,United States,No,"Not yet, but I would like to work with the military community",,"11786 Westline Industrial Drive
St. Louis, Missouri 63146
(38.702912, -90.434167)",
Midtown Psychological Services,No,No,No,Yes,No,No,No,No,No,No,No,Yes,Yes,Yes,No,Yes,Yes,Yes,Yes,Yes,No,http://midtownpsych.net,8165619494,64111,United States,No,"Yes, I have training in military culture",,"3914 Washington St
Kansas City, Missouri 64111
(39.056185, -94.591537)",
Midwest Assessment and Psychotherapy Solutions (MAPS),No,No,No,No,No,No,Yes,No,No,No,Yes,Yes,Yes,No,No,No,Yes,Yes,Yes,Yes,No,http://www.midwestassessment.com,4175974309,65803,United States,No,"Yes, I have training in military culture",,"3646 S. Campbell Ave
Springfield, Missouri 65803
(37.149808, -93.295863)",
Midwest Assessment and Psychotherapy Solutions (MAPS),No,No,No,No,Yes,No,No,No,No,Yes,No,Yes,Yes,No,Yes,Yes,Yes,Yes,No,No,Yes,http://www.midwestassessment.com,4175974309,65807,United States,Yes,"Not yet, but I would like to work with the military community",,"2108 W Vista St
Springfield, Missouri 65807
(37.165122, -93.321593)",
Midwest Assessment and Psychotherapy Solutions (MAPS),No,No,No,No,No,No,Yes,No,No,Yes,No,No,Yes,No,No,No,No,No,No,No,No,http://www.midwestassessment.com,4175974309,65802,United States,Yes,"Yes, I have served in the military",,"230 N. Belcrest
Springfield, Missouri 65802
(37.20889, -93.234337)",Suite A
Midwest Assessment and Psychotherapy Solutions (MAPS),No,No,No,No,No,No,No,No,No,Yes,Yes,Yes,Yes,No,No,No,Yes,Yes,No,No,No,http://www.midwestassessment.com,4175974309,65708,United States,Yes,"Not yet, but I would like to work with the military community",,"864 Hwy 60
Monett, Missouri 65708
(36.914514, -93.907189)",Suite F
Midwest Assessment and Psychotherapy Solutions (MAPS) (ages 10-18),No,No,No,No,No,No,No,No,No,Yes,No,Yes,Yes,Yes,No,No,Yes,Yes,Yes,Yes,No,http://www.midwestassessment.com,4174131593,65714,United States,Yes,"Not yet, but I would like to work with the military community",,"560 W. Mt. Vernon
Nixa, Missouri 65714
(37.043634, -93.305564)",
Midwest Counseling and Consulting (in-home counseling),No,No,No,Yes,No,No,No,No,No,No,Yes,Yes,Yes,Yes,No,Yes,Yes,Yes,No,Yes,No,http://www.midwest-counseling.com,3145043828,63122,United States,No,"Yes, I have training in military culture",,"St. Louis
St. Louis, Missouri 63122
(38.72125, -90.369814)",
"Mineral Area CPRC, Inc",No,Yes,No,No,No,Yes,No,No,No,No,Yes,No,No,No,No,No,Yes,No,No,No,Yes,,5737562899,63640,United States,No,"Not yet, but I would like to work with the military community",,"203 South Washington
Farmington, Missouri 63640
(37.77912, -90.421219)",
Mission Missouri,No,Yes,No,No,No,No,No,No,No,No,Yes,Yes,No,No,Yes,No,No,No,No,No,No,http://www.missionmissouri.com,5734810505,63801,United States,No,"Not yet, but I would like to work with the military community",,"509 Ruth Street
Sikeston, Missouri 63801
(36.871395, -89.595376)",
"Mona Evans, LCSW",No,No,Yes,No,No,No,No,No,No,No,Yes,Yes,No,Yes,No,Yes,Yes,Yes,Yes,Yes,No,http://www.respsych.com,6369312900,63028,United States,No,"Not yet, but I would like to work with the military community",,"998 East Gannon Drive
Festus, Missouri 63028
(38.212613, -90.400279)",Suite 120
"Monica Hutchison, LPC",No,No,No,Yes,No,No,No,No,No,No,No,Yes,Yes,No,No,No,Yes,No,No,No,No,,5732016758,65453,United States,No,"Not yet, but I would like to work with the military community",,"368 Holly Lane
Cuba, Missouri 65453
(38.056776, -91.432405)",
"New Journey Counseling, LLC",No,No,No,Yes,No,No,No,No,No,No,No,No,Yes,No,No,No,Yes,Yes,Yes,No,No,,6603950090,63552,United States,No,"Not yet, but I would like to work with the military community",,"218 N Rollins
Macon, Missouri 63552
(39.739547, -92.472949)",Suite 101
New Vision Counseling,No,Yes,No,Yes,No,No,No,No,No,No,Yes,Yes,Yes,Yes,No,Yes,Yes,Yes,No,Yes,No,http://www.newvisioncounseling.com,5733343486,63701,United States,No,"Not yet, but I would like to work with the military community",,"619 N. Broadview
Cape Girardeau, Missouri 63701
(37.314792, -89.553477)",
North Central Missouri Mental Health Center,No,No,No,Yes,No,No,No,No,No,No,No,No,Yes,No,No,Yes,Yes,Yes,No,Yes,No,http://www.ncmmh.org,6603594487,63556,United States,No,"Not yet, but I would like to work with the military community",,"611 W. 3rd Street
Milan, Missouri 63556
(40.202019, -93.132851)",
North Central Missouri Mental Health Center,No,No,Yes,Yes,No,No,No,No,Yes,No,No,No,Yes,No,No,Yes,Yes,Yes,No,Yes,No,http://www.ncmmh.org,6603594487,64683,United States,Yes,"Not yet, but I would like to work with the military community",,"1601 East 28th Street
Trenton, Missouri 64683
(40.09016, -93.60191)",
North Central Missouri Mental Health Center,No,No,No,Yes,No,Yes,No,No,No,No,No,No,Yes,No,No,Yes,Yes,Yes,No,Yes,No,http://www.ncmmh.org,6603594487,64628,United States,No,"Not yet, but I would like to work with the military community",,"1102 W. Helm
Brookfield, Missouri 64628
(39.78095, -93.095062)",
North Central Missouri Mental Health Center,No,No,No,Yes,No,Yes,No,No,No,No,No,No,Yes,No,No,Yes,Yes,Yes,No,Yes,No,http://www.ncmmh.org,6603594487,64601,United States,Yes,"Not yet, but I would like to work with the military community",,"401 Youssef Drive
Chillicothe, Missouri 64601
(39.808174, -93.551608)",
North Central Missouri Mental Health Center,No,No,Yes,No,No,No,No,No,No,No,No,No,Yes,No,No,Yes,Yes,Yes,No,No,No,http://www.ncmmh.org,6603594487,64424,United States,Yes,"Not yet, but I would like to work with the military community",,"4114 Miller Street
Bethany, Missouri 64424
(40.265194, -94.010779)",
North County VA Community Based Outpatient Clinic (CBOC),No,No,No,No,No,No,No,No,No,No,Yes,Yes,No,No,No,No,Yes,Yes,Yes,Yes,No,,3143880470,63033,United States,Yes,"Yes, I have training in military culture",,"6845 Parker Rd
Florissant, Missouri 63033
(38.796451, -90.235409)",
Olive Tree Counseling,No,No,No,Yes,No,No,No,No,No,No,Yes,Yes,No,Yes,Yes,Yes,Yes,Yes,Yes,Yes,No,http://olivetreecounseling.net/,6603721663,65270,United States,No,"Not yet, but I would like to work with the military community",,"222 N Williams Street
Moberly, Missouri 65270
(39.420496, -92.439164)",
"Olufemi Sharp, LPC",No,No,No,Yes,No,No,No,No,No,No,Yes,Yes,No,Yes,Yes,Yes,Yes,No,No,No,No,http://www.olufemis-counseling.com,8166653003,64114,United States,No,"Not yet, but I would like to work with the military community",,"7611 State Line Road
Kansas City, Missouri 64114
(38.989714, -94.607998)",Suite 135
Open Gate Counseling,No,Yes,No,Yes,No,No,No,No,No,No,Yes,No,No,No,No,Yes,Yes,Yes,No,No,No,http://www.StLouisWellnessCenter.com,3148085970,63119,United States,No,"Yes, I have training in military culture",,"425 Marshall Avenue
St. Louis, Missouri 63119
(38.604909, -90.345786)",
"Ozark Center/Freeman Health System, Joplin, MO",No,No,No,No,No,No,No,No,No,Yes,No,No,No,No,No,Yes,Yes,Yes,No,Yes,No,,4173477500,64804,United States,Yes,"Yes, I have training in military culture",,"530 E. 34th Street
Joplin, Missouri 64804
(37.051369, -94.510457)",Suite 102
Ozark Center New Directions,No,Yes,No,Yes,No,No,Yes,No,No,No,Yes,Yes,No,Yes,Yes,Yes,Yes,Yes,Yes,Yes,Yes,http://ozarkcenter.com,4173477730,64801,United States,Yes,"Yes, I have served in the military",,"305 Virginia
Joplin, Missouri 64801
(37.088586, -94.512211)",
Ozark OB/GYN,No,No,No,No,No,No,No,No,No,Yes,Yes,Yes,Yes,Yes,Yes,Yes,Yes,Yes,Yes,Yes,Yes,,5737850313,63901,United States,Yes,"Not yet, but I would like to work with the military community",,"225 Physicians Park Drive
Poplar Bluff, Missouri 63901
(36.771091, -90.456439)",Suite 300
Ozarks Medical Center,No,No,Yes,No,No,No,No,No,No,No,Yes,Yes,Yes,No,Yes,Yes,Yes,Yes,Yes,Yes,No,http://www.ozarksmedicalcenter.com,4172576762,65711,United States,No,"Not yet, but I would like to work with the military community",,"1604 N. Main
Mountain Grove, Missouri 65711
(37.1442, -92.262936)",
"Pamela Sleeper LCSW, MFT",No,No,Yes,No,Yes,No,No,No,No,No,Yes,No,Yes,No,No,Yes,Yes,No,No,No,No,,3142051707,63141,United States,Yes,"Not yet, but I would like to work with the military community",,"1066 Executive Parkway
St. Louis, Missouri 63141
(38.675756, -90.470687)",Suite 110
Pathways Community Health,No,Yes,Yes,Yes,No,No,No,No,No,No,Yes,Yes,Yes,Yes,No,Yes,Yes,Yes,Yes,Yes,Yes,http://www.pathwaysonline.org,6608265885,65301,United States,Yes,"Not yet, but I would like to work with the military community",,"1400 South Limit
Sedalia, Missouri 65301
(38.700718, -93.250519)",Suite 9
Pathways Community Health,No,No,No,Yes,No,No,No,No,Yes,No,Yes,Yes,Yes,Yes,Yes,Yes,Yes,Yes,Yes,Yes,Yes,http://www.pathwaysonline.org,8884031071,65203,United States,Yes,"Not yet, but I would like to work with the military community",,"1000 W. Nifong
Columbia, Missouri 65203
(38.908719, -92.354713)",Suite 220B
Pathways Community Health,No,Yes,Yes,Yes,No,No,No,No,No,Yes,Yes,Yes,Yes,Yes,Yes,Yes,Yes,Yes,Yes,Yes,Yes,http://www.pathwaysonline.org,8884031071,65536,United States,Yes,"Not yet, but I would like to work with the military community",,"1216 Deadra Drive
Lebanon, Missouri 65536
(37.669004, -92.636773)",
Pathways Community Health,No,No,Yes,No,No,No,No,No,No,Yes,Yes,Yes,Yes,Yes,Yes,Yes,Yes,Yes,Yes,Yes,Yes,http://www.pathwaysonline.org,8884031071,65583,United States,Yes,"Not yet, but I would like to work with the military community",,"704 Route 66
Waynesville, Missouri 65583
(37.820609, -92.213549)",Suite 106
Pathways Community Health,No,No,Yes,No,No,No,No,No,Yes,Yes,Yes,Yes,Yes,Yes,No,Yes,Yes,Yes,Yes,Yes,Yes,http://www.pathwaysonline.org,8884031071,64067,United States,Yes,"Not yet, but I would like to work with the military community",,"819 Missouri 13 Business
Lexington, Missouri 64067
(39.175274, -93.87436)",
Pathways Community Health,No,Yes,No,Yes,No,No,No,No,Yes,No,Yes,Yes,Yes,Yes,Yes,Yes,Yes,Yes,Yes,Yes,No,http://www.pathwaysonline.org,8884031071,64093,United States,No,"Not yet, but I would like to work with the military community",,"520 Burkarth Road
Warrensburg, Missouri 64093
(38.768336, -93.723629)",Suite C
Pathways Community Health,No,Yes,No,Yes,No,No,No,No,Yes,No,Yes,Yes,Yes,No,Yes,Yes,Yes,Yes,Yes,No,No,http://www.pathwaysonline.org,4176672262,64772,United States,Yes,"Not yet, but I would like to work with the military community",,"320 N. Mac Boulevard
Nevada, Missouri 64772
(37.836675, -94.329277)",
Pathways Community Health,No,Yes,No,Yes,No,No,No,No,Yes,No,Yes,Yes,No,Yes,No,No,Yes,Yes,No,Yes,Yes,http://www.pathwaysonline.org/,8884031071,65066,United States,Yes,"Yes, I have training in military culture",,"704 E. Hwy 28
Owensville, Missouri 65066
(38.346652, -91.491012)",
Pathways Community Health,No,Yes,No,No,No,No,No,No,No,No,Yes,No,No,No,No,No,Yes,No,No,No,No,http://www.pathwaysonline.org,6607471355,64093,United States,Yes,"Not yet, but I would like to work with the military community",,"703 N. DeVasher
Warrensburg, Missouri 64093
(38.772549, -93.701158)",
Pathways Community Health,No,Yes,No,No,No,No,No,No,No,No,Yes,No,No,No,No,No,Yes,No,No,No,No,http://www.pathwaysonline.org/,5736344591,65109,United States,Yes,"Not yet, but I would like to work with the military community",,"204 Metro Drive
Jefferson City, Missouri 65109
(38.594094, -92.222916)",Suite B
Pathways Community Health,No,Yes,Yes,No,No,No,No,No,Yes,No,Yes,Yes,Yes,Yes,Yes,Yes,Yes,Yes,Yes,Yes,Yes,http://www.pathwaysonline.org,6606794636,64730,United States,Yes,"Not yet, but I would like to work with the military community",,"205 E. Dakota
Butler, Missouri 64730
(38.257398, -94.329938)",
Pathways Community Health,No,Yes,Yes,Yes,No,No,No,Yes,Yes,No,Yes,Yes,Yes,Yes,Yes,Yes,Yes,Yes,Yes,Yes,Yes,http://www.pathwaysonline.org,8884031071,64083,United States,Yes,"Not yet, but I would like to work with the military community",,"1010 Remington Plaza
Raymore, Missouri 64083
(38.812774, -94.47003)",
Pathways Community Health,No,Yes,No,No,No,No,No,No,No,No,Yes,No,No,No,No,No,Yes,No,No,No,No,http://www.pathwaysonline.org,6608310908,65340,United States,Yes,"Not yet, but I would like to work with the military community",,"941 S Cherokee Drive
Marshall, Missouri 65340
(39.108593, -93.214008)",Suite 2B
Pathways Community Health,No,No,Yes,Yes,No,No,No,No,No,No,Yes,Yes,Yes,No,No,Yes,Yes,Yes,Yes,Yes,Yes,http://www.pathwaysonline.org,8884031071,65026,United States,Yes,"Not yet, but I would like to work with the military community",,"206 S. Mill Street
Eldon, Missouri 65026
(38.348434, -92.57842)",
Pathways Community Health,No,Yes,No,Yes,No,No,No,No,No,No,Yes,Yes,No,Yes,Yes,Yes,Yes,Yes,Yes,Yes,No,http://www.pathwaysonline.org,5736423239,65251,United States,Yes,"Not yet, but I would like to work with the military community",,"2625 Fairway Drive
Fulton, Missouri 65251
(38.878927, -91.964589)",
Pathways Community Health,No,No,Yes,Yes,No,No,No,No,No,No,Yes,Yes,Yes,Yes,Yes,Yes,Yes,Yes,Yes,Yes,Yes,http://www.pathwaysonline.org,8884031071,65109,United States,Yes,"Not yet, but I would like to work with the military community",,"1905 Stadium Boulevard
Jefferson City, Missouri 65109
(38.566709, -92.202298)",
Pathways Community Health,No,No,Yes,No,No,No,No,No,No,Yes,Yes,Yes,Yes,Yes,Yes,Yes,Yes,Yes,Yes,No,Yes,http://www.pathwaysonline.org,8884031071,65109,United States,Yes,"Not yet, but I would like to work with the military community",,"3400 West Truman Blvd.
Jefferson City, Missouri 65109
(38.59086, -92.246364)",
Pathways Community Health,No,No,No,Yes,No,No,No,No,Yes,Yes,Yes,Yes,Yes,Yes,Yes,Yes,Yes,Yes,Yes,Yes,No,http://www.pathwaysonline.org,8884031071,65401,United States,Yes,"Not yet, but I would like to work with the military community",,"1450 E. 10th Street
Rolla, Missouri 65401
(37.951515, -91.746768)",
Pathways Community Health,No,Yes,No,Yes,No,No,No,No,No,No,Yes,Yes,Yes,Yes,No,Yes,Yes,Yes,Yes,Yes,No,http://www.pathwaysonline.org,8884031071,65020,United States,Yes,"Not yet, but I would like to work with the military community",,"741 N. Business Route 5
Camdenton, Missouri 65020
(38.014552, -92.755122)",
Pathways Community Health,No,Yes,No,Yes,No,No,No,No,No,No,Yes,Yes,Yes,Yes,Yes,Yes,Yes,Yes,Yes,Yes,Yes,http://www.pathwaysonline.org,5734492581,65203,United States,Yes,"Not yet, but I would like to work with the military community",,"117 N. Garth Ave.
Columbia, Missouri 65203
(38.953834, -92.338928)",
Pathways Community Health,No,No,Yes,No,No,No,No,No,No,Yes,Yes,Yes,Yes,Yes,Yes,Yes,Yes,Yes,Yes,Yes,No,http://www.pathwaysonline.org,8884031071,65453,United States,Yes,"Not yet, but I would like to work with the military community",,"1019 West Side Drive
Cuba, Missouri 65453
(38.069609, -91.411438)",
Pathways Community Health,No,Yes,No,No,No,No,No,No,No,Yes,No,Yes,Yes,Yes,No,Yes,Yes,Yes,Yes,Yes,No,http://www.pathwaysonline.org,6608858131,64735,United States,Yes,"Not yet, but I would like to work with the military community",,"1800 Community Drive
Clinton, Missouri 64735
(38.393085, -93.768815)",
Pathways Community Health,No,Yes,No,Yes,No,No,No,Yes,Yes,No,Yes,Yes,Yes,Yes,No,No,Yes,Yes,Yes,Yes,Yes,http://www.pathwaysonline.org,8884031071,64701,United States,Yes,"Not yet, but I would like to work with the military community",,"300 Galaxie Avenue
Harrisonville, Missouri 64701
(38.65553, -94.331115)",
Pathways Community Health,No,Yes,No,No,No,No,Yes,No,Yes,No,Yes,Yes,Yes,No,No,No,Yes,Yes,No,Yes,Yes,http://www.pathwaysonline.org,8884031071,64744,United States,Yes,"Not yet, but I would like to work with the military community",,"107 W. Broadway Street
El Dorado Springs, Missouri 64744
(37.877818, -94.021627)",
Pathways Community Health,No,No,No,Yes,No,No,No,No,No,No,Yes,Yes,Yes,Yes,Yes,Yes,Yes,Yes,Yes,Yes,No,http://www.pathwaysonline.org/,8884031071,65560,United States,Yes,"Not yet, but I would like to work with the military community",,"913 S. Pershing Ave
Salem, Missouri 65560
(37.636771, -91.530971)",
Pathways Community Health,No,No,Yes,No,No,No,No,No,No,Yes,Yes,Yes,Yes,Yes,No,Yes,Yes,Yes,Yes,Yes,Yes,http://www.pathwaysonline.org,8884031071,64076,United States,Yes,"Not yet, but I would like to work with the military community",,"1278 W. U.S. Hwy 40
Odessa, Missouri 64076
(39.008264, -93.972537)",
Pathways Community Health,No,Yes,No,Yes,No,No,No,No,No,No,Yes,Yes,Yes,No,No,No,Yes,No,No,Yes,No,http://www.pathwaysonline.org,5734494770,65201,United States,Yes,"Not yet, but I would like to work with the military community",,"403 Dysart Street
Columbia, Missouri 65201
(38.959179, -92.33248)",
Pathways Community Health,No,Yes,No,No,No,No,No,No,No,No,Yes,No,No,No,No,No,Yes,No,No,No,No,http://www.pathwaysonline.org,6604281280,65355,United States,Yes,"Not yet, but I would like to work with the military community",,"1330 Commercial
Warsaw, Missouri 65355
(38.249909, -93.369744)",
"Patrice Dumas, LPC",No,No,No,Yes,No,No,No,No,No,No,Yes,Yes,No,No,No,Yes,Yes,Yes,Yes,Yes,Yes,,8168667956,64134,United States,No,"Not yet, but I would like to work with the military community",,"8540 Blue Ridge Blvd
Kansas City, Missouri 64134
(38.968133, -94.497764)",
"Patricia A. Sartini, Inc.",No,No,No,Yes,Yes,No,No,No,No,No,Yes,Yes,No,No,Yes,Yes,Yes,No,No,No,No,http://www.patriciasartinilmft.com,3147311133,63031,United States,No,"Yes, I have training in military culture",,"525 St. Francois Street
Florissant, Missouri 63031
(38.793774, -90.327602)",Suite 6
"Patricia Cholak, LPC",No,No,No,Yes,No,No,No,No,No,No,Yes,Yes,Yes,Yes,No,Yes,Yes,Yes,Yes,Yes,No,,6602386460,65336,United States,No,"Not yet, but I would like to work with the military community",,"697 SE 550
Knob Noster, Missouri 65336
(38.67651, -93.618998)",
"PCS Professional Counseling, LLC",No,No,No,Yes,No,No,No,No,No,No,No,No,No,No,No,No,Yes,Yes,No,No,No,http://PCSCounselingLLC.Com,5736357272,65101,United States,Yes,"Yes, I have served in the military",,"312 West Dunklin Street
Jefferson City, Missouri 65101
(38.574922, -92.179877)",
"Peter Gusman, LPC",No,No,No,Yes,No,No,No,No,No,No,Yes,Yes,No,No,No,Yes,Yes,Yes,No,No,No,,8165050909,64116,United States,Yes,"Yes, I have training in military culture",,"4131 N. Mulberry Drive
Kansas City, Missouri 64116
(39.168469, -94.597559)",Suite 245
"Peter Schumaker, LPC",No,No,No,Yes,No,No,No,No,No,No,No,No,Yes,No,Yes,Yes,Yes,No,No,No,No,http://therapists.psychologytoday.com/rms/111115,3142460560,63143,United States,No,"Not yet, but I would like to work with the military community",,"3134 S Sutton Blvd
Maplewood, Missouri 63143
(38.607083, -90.320812)",
"Phoenix Programs, Inc.",No,Yes,Yes,Yes,No,No,No,No,No,No,Yes,Yes,No,Yes,No,Yes,Yes,Yes,No,No,No,http://www.phoenixprogramsinc.org,5738758880,65202,United States,No,"Not yet, but I would like to work with the military community",,"90 E Leslie Ln
Columbia, Missouri 65202
(38.97212, -92.335588)",
Plaza Counseling Services,No,No,No,Yes,No,No,No,No,No,No,Yes,Yes,Yes,Yes,No,Yes,Yes,Yes,Yes,Yes,No,http://plazacounselingkc.com,8167562984,64112,United States,Yes,"Yes, I have training in military culture",,"4600 Madison Ave
Kansas City, Missouri 64112
(39.044866, -94.597255)",Suite 725
Preferred Family Healthcare,No,Yes,No,Yes,No,No,No,No,No,No,Yes,Yes,No,Yes,Yes,Yes,Yes,Yes,Yes,No,No,http://pfh.org,3147722205,63118,United States,No,"Not yet, but I would like to work with the military community",,"3800 South Broadway
St. Louis, Missouri 63118
(38.585951, -90.226582)",
Preferred Family Healthcare,No,No,No,Yes,No,No,No,No,No,No,Yes,Yes,Yes,No,No,Yes,Yes,Yes,No,Yes,No,,3147297050,63128,United States,No,"Not yet, but I would like to work with the military community",,"10024 Office Center Ave
St. Louis, Missouri 63128
(38.52266, -90.363152)",Suite 100
Preferred Family Healthcare,No,No,No,Yes,No,No,No,No,No,No,Yes,Yes,No,No,No,No,Yes,Yes,Yes,Yes,No,http://pfh.org,3143611630,63118,United States,No,"Not yet, but I would like to work with the military community",,"2639 Miami Street
St. Louis, Missouri 63118
(38.589888, -90.227754)",
Preferred Family Healthcare,No,Yes,No,Yes,No,No,No,No,No,No,Yes,Yes,No,No,Yes,Yes,Yes,Yes,Yes,Yes,No,http://www.pfh.org,5736324321,65109,United States,No,"Not yet, but I would like to work with the military community",,"210 Hoover Road
Jefferson City, Missouri 65109
(38.59714, -92.22207)",
Probasco and Associates,No,No,No,Yes,No,No,No,No,No,No,No,Yes,No,No,Yes,Yes,Yes,No,No,No,No,http://probascoandassociates.com/,8167818550,64068,United States,No,"Not yet, but I would like to work with the military community",,"1129 West Kansas Street
Liberty, Missouri 64068
(39.24359, -94.43931)",Suite B
"Rachel Millonas, LPC",No,No,No,Yes,No,No,No,No,No,No,Yes,No,Yes,Yes,No,No,Yes,Yes,No,Yes,No,,6362227372,63021,United States,No,"Not yet, but I would like to work with the military community",,"255 Village Meadow Dr.
Ballwin, Missouri 63021
(38.581291, -90.56496)",
"Raymond Reeves, LPC",No,No,No,Yes,No,No,No,No,No,No,Yes,No,No,No,No,No,No,No,No,No,No,http://www.fccinc.org/,5736514177,63703,United States,No,"Not yet, but I would like to work with the military community",,"20 South Sprigg Street
Cape Girardeau, Missouri 63703
(37.303819, -89.527035)",
"Recovery Lighthouse, Inc.",No,Yes,No,No,Yes,No,No,No,No,No,Yes,Yes,Yes,Yes,No,Yes,Yes,Yes,Yes,Yes,No,http://www.recoverylighthouse.org,6604292222,64093,United States,No,"Not yet, but I would like to work with the military community",,"107 East Culton Street
Warrensburg, Missouri 64093
(38.764123, -93.740188)",
Reichert Counseling Group,No,No,No,Yes,No,No,No,No,No,No,Yes,Yes,Yes,Yes,No,Yes,Yes,Yes,Yes,Yes,No,,5737671212,63457,United States,No,"Not yet, but I would like to work with the military community",,"105 E Lafayette
Monticello, Missouri 63457
(40.118697, -91.71217)",
ReignHeart Counseling (In Home Counseling Available),No,No,No,Yes,No,No,No,No,No,No,Yes,Yes,Yes,Yes,Yes,Yes,Yes,Yes,No,No,Yes,http://www.rhaofhope.org,6363666543,63301,United States,No,"Not yet, but I would like to work with the military community",,"2250 W. Clay
St. Charles, Missouri 63301
(38.783598, -90.507911)",Suite 255
ReignHeart Counseling (In Home Counseling Available),No,No,No,Yes,No,No,No,No,No,No,Yes,Yes,Yes,Yes,Yes,Yes,Yes,Yes,No,No,Yes,http://www.rhaofhope.org,6363666543,65714,United States,No,"Not yet, but I would like to work with the military community",,"Nixa, Missouri 65714
(37.042643, -93.311019)",
"Renewed Mental Health, LLC",No,No,No,Yes,No,No,No,No,No,No,No,No,Yes,Yes,No,Yes,Yes,Yes,Yes,Yes,No,http://www.renewedmentalhealth.com,4176260212,64801,United States,Yes,"Not yet, but I would like to work with the military community",,"212 1/2 W 5th Street
Joplin, Missouri 64801
(37.086735, -94.51449)",Suite 212
Resilience Counseling,No,No,No,Yes,No,No,No,No,No,No,No,Yes,Yes,Yes,No,Yes,Yes,Yes,Yes,No,No,http://therapists.psychologytoday.com/197198,9133254602,64152,United States,No,"Not yet, but I would like to work with the military community",,"8341 NW Mace Rd
Kansas City, Missouri 64152
(39.246688, -94.682402)",
"Riesmeyer Counseling Services, LLC",No,No,No,Yes,No,No,No,No,No,No,No,Yes,No,No,Yes,No,Yes,Yes,Yes,Yes,No,http://www.riesmeyercounseling.com,3143032937,63131,United States,No,"Not yet, but I would like to work with the military community",,"13354 Manchester Road
St. Louis, Missouri 63131
(38.600531, -90.466799)",Suite 220
"Robert Lefebvre, LCSW",No,No,Yes,No,No,No,No,No,No,No,No,Yes,No,Yes,No,Yes,No,Yes,No,Yes,No,,5739866191,63701,United States,No,"Not yet, but I would like to work with the military community",,"1 University Plaza
Cape Girardeau, Missouri 63701
(37.315375, -89.525351)",
"Rodney Clossum, LPC",No,No,No,Yes,No,No,No,No,No,No,No,Yes,No,Yes,No,No,Yes,No,No,No,No,,3149714714,63122,United States,No,"Not yet, but I would like to work with the military community",,"629 Clemons Court
St. Louis, Missouri 63122
(38.589851, -90.419395)",
"Rodney Clossum, LPC",No,No,No,Yes,No,No,No,No,No,No,No,Yes,No,Yes,No,No,Yes,No,No,No,No,,3149714714,63301,United States,No,"Not yet, but I would like to work with the military community",,"1360 South Fifth Street
St. Louis, Missouri 63301
(38.770854, -90.492966)",
"Rono Bowyer, LCSW",No,No,Yes,No,No,No,No,No,No,No,No,No,Yes,No,No,No,No,No,No,No,No,http://www.freemanhealth.com,4173477860,64804,United States,Yes,"Not yet, but I would like to work with the military community",,"1949 Snowberry Lane
Joplin, Missouri 64804
(37.071738, -94.592392)",
Rural Mental Health Services,No,No,No,Yes,No,No,No,No,No,No,Yes,Yes,Yes,Yes,Yes,Yes,Yes,Yes,Yes,Yes,Yes,http://www.ruralmentalhealthservices.com,4179242059,65704,United States,No,"Not yet, but I would like to work with the military community",,"812 North Hwy 5
Mansfield, Missouri 65704
(37.127012, -92.573053)",
"Ruth Ridenhour, LPC",No,No,No,Yes,No,No,No,No,No,No,Yes,Yes,Yes,No,No,Yes,Yes,Yes,No,Yes,No,,5735786479,65542,United States,No,"Not yet, but I would like to work with the military community",,"20005 Hwy CC
Licking, Missouri 65542
(37.583881, -91.782695)",
"Sac River Counseling, Inc",No,No,No,No,Yes,No,No,No,No,Yes,Yes,Yes,Yes,Yes,Yes,Yes,Yes,Yes,Yes,Yes,No,http://sacriver.net,4176371476,65661,United States,Yes,"Not yet, but I would like to work with the military community",,"406 West College Street
Greenfield, Missouri 65661
(37.41574, -93.841485)",Suite 2
"Samantha Graham-Douglas, LPC",No,No,No,Yes,No,No,No,No,No,No,Yes,Yes,Yes,Yes,Yes,Yes,Yes,Yes,Yes,Yes,No,,6363586021,63379,United States,Yes,"Not yet, but I would like to work with the military community",,"681 South Lincoln Dr
Troy, Missouri 63379
(38.964687, -90.956637)",Suite 3
"Sandy Bookmeyer, LPC",No,No,No,Yes,No,No,No,No,No,No,No,No,No,No,No,No,Yes,Yes,Yes,Yes,Yes,,8165096821,64015,United States,No,"Not yet, but I would like to work with the military community",,"1930 NW Copper Oaks Circle
Blue Springs, Missouri 64015
(39.029888, -94.28685)",
Sandy Dozier,No,No,No,Yes,No,No,No,No,No,No,Yes,Yes,No,Yes,Yes,Yes,Yes,Yes,Yes,Yes,No,http://www.addictionawarenessllc.com,8167494060,64506,United States,Yes,"Not yet, but I would like to work with the military community",,"3442 Ashland Ave
St. Joseph, Missouri 64506
(39.800869, -94.816164)",
Scott A. Maid Behavioral Health Center,No,No,No,No,No,No,Yes,No,No,No,Yes,Yes,Yes,Yes,No,No,Yes,Yes,Yes,Yes,No,,8168445777,64030,United States,No,"Yes, I have training in military culture",,"708 Main Street
Grandview, Missouri 64030
(38.889474, -94.53691)",Suite 103
"Seth Jackson, LCSW",No,No,Yes,No,No,No,No,No,No,No,No,No,No,No,No,Yes,No,No,No,No,No,http://lafayettehouse.org/,4177821772,64804,United States,No,"Not yet, but I would like to work with the military community",,"1822 Conner
Joplin, Missouri 64804
(37.071838, -94.523127)",
"Shari Boxdorfer, LPC",No,Yes,No,Yes,No,No,No,No,No,No,Yes,Yes,No,Yes,No,Yes,Yes,Yes,No,No,No,http://www.newvisioncounseling.com,5733343486,63701,United States,No,"Not yet, but I would like to work with the military community",,"1615 Bessie Street
Cape Girardeau, Missouri 63701
(37.309543, -89.540641)",
Solid Rock Christian Counseling,No,No,No,Yes,No,No,No,No,No,No,Yes,Yes,No,No,Yes,Yes,Yes,No,No,No,Yes,http://www.solidrockchristiancounseling,5737850333,63901,United States,Yes,"Yes, I have training in military culture",,"2725 N Westood
Poplar Bluff, Missouri 63901
(36.785429, -90.429277)",Suite 5A
"Solutions Counseling & Coaching, LLC",No,No,No,Yes,No,No,No,No,No,No,Yes,Yes,Yes,No,Yes,Yes,Yes,Yes,Yes,Yes,Yes,http://solutionshelp4u.com,4175989155,65616,United States,No,"Not yet, but I would like to work with the military community",,"333 Corporate Place
Branson, Missouri 65616
(36.687682, -93.217838)",Suite K
Southeast Missouri Behavioral Health,No,No,No,Yes,No,No,No,No,No,No,Yes,Yes,No,No,Yes,Yes,Yes,Yes,No,No,No,http://semobh.org,3149608639,63628,United States,No,"Yes, I have training in military culture",,"1010 West Columbia
Farmington, Missouri 63628
(37.775501, -90.434904)",
Southeast Missouri Behavioral Health,No,No,No,Yes,No,No,No,No,No,No,Yes,Yes,No,No,No,No,Yes,Yes,Yes,No,Yes,http://www.semobh.org,5733648511,65401,United States,No,"Not yet, but I would like to work with the military community",,"1051 Kingshighway
Rolla, Missouri 65401
(37.944251, -91.785634)",Suite 5
Southeast Missouri Behavioral Health,No,Yes,No,Yes,No,No,No,No,No,No,Yes,No,No,Yes,No,Yes,Yes,Yes,Yes,Yes,No,http://www.semobh.org,5734313341,63601,United States,No,"Not yet, but I would like to work with the military community",,"512 East Main Street
Park Hills, Missouri 63601
(37.845524, -90.507607)",
Spring Grove Counseling,No,No,Yes,Yes,No,No,No,No,No,No,Yes,Yes,Yes,Yes,No,Yes,Yes,Yes,Yes,Yes,No,http://springgrovecounseling.com,5732893090,65101,United States,Yes,"Not yet, but I would like to work with the military community",,"211 Oscar Drive
Jefferson City, Missouri 65101
(38.559743, -92.18834)",Suite A
SSM Dupaul Health Center,No,No,No,No,No,No,No,No,No,Yes,No,No,No,No,No,No,Yes,No,No,No,No,,3143447880,63044,United States,Yes,"Not yet, but I would like to work with the military community",,"12255 De Paul Drive
Bridgeton, Missouri 63044
(38.755058, -90.434087)",Suite 250
St. Charles (OFallon) VA Community Based Outpatient Clinic (CBOC),No,No,No,No,No,No,No,No,No,No,No,No,No,No,No,Yes,Yes,Yes,Yes,Yes,No,,3142866988,63368,United States,Yes,"Yes, I have training in military culture",,"844 Waterbury Falls Drive
O'Fallon, Missouri 63368
(38.720876, -90.696998)",
St. Patrick Center,No,No,No,Yes,No,No,No,No,No,No,Yes,No,No,No,No,No,Yes,No,Yes,Yes,No,,3148020670,63101,United States,No,"Not yet, but I would like to work with the military community",,"800 N. Tucker
St. Louis, Missouri 63101
(38.633758, -90.1959)",
Swope Health Services-Imani House,No,No,Yes,No,No,No,No,No,No,No,Yes,Yes,No,Yes,No,Yes,Yes,Yes,No,Yes,No,http://swopehealthservices.org,8169292600,64130,United States,No,"Not yet, but I would like to work with the military community",,"3950 E. 51st Street
Kansas City, Missouri 64130
(39.033163, -94.539864)",
Synergy Counseling Services,No,No,No,Yes,No,No,No,No,No,No,No,Yes,Yes,Yes,No,Yes,Yes,Yes,No,No,No,http://www.marvinmiller.org,3143829318,63136,United States,No,"Not yet, but I would like to work with the military community",,"2870 Netherton Drive
St. Louis, Missouri 63136
(38.774438, -90.268455)",
Tailored Counseling,No,No,No,Yes,No,No,No,No,No,No,No,Yes,Yes,Yes,Yes,Yes,Yes,Yes,Yes,Yes,No,http://www.counselor4u.org/,8166176259,64429,United States,No,"Not yet, but I would like to work with the military community",,"611 W 4th Street
Cameron, Missouri 64429
(39.742827, -94.245241)",
Tailored Counseling,No,No,No,Yes,No,No,No,No,No,No,No,Yes,Yes,Yes,Yes,Yes,Yes,Yes,Yes,Yes,No,http://www.counselor4u.org/,8166176259,64506,United States,No,"Not yet, but I would like to work with the military community",,"3801 Oakland Ave
St. Joseph, Missouri 64506
(39.783288, -94.800501)",Suite 110
"Tara Huber, LPC",No,No,No,Yes,No,No,No,No,No,No,Yes,Yes,Yes,Yes,Yes,Yes,Yes,Yes,Yes,Yes,Yes,,5732212111,63401,United States,No,"Not yet, but I would like to work with the military community",,"1221 Market St.
Hannibal, Missouri 63401
(39.704669, -91.367558)",
"Teresa Schroeder, LLC",No,No,No,Yes,No,No,No,No,No,No,No,Yes,Yes,No,No,No,No,Yes,No,No,Yes,,3144950585,63118,United States,No,"Yes, I have training in military culture",,"3407 S. Jefferson
St. Louis, Missouri 63118
(38.593135, -90.225497)",
"Teresa Schroeder, LLC",No,No,No,Yes,No,No,No,No,No,No,No,Yes,Yes,No,No,No,No,Yes,No,No,Yes,,3144950585,63017,United States,No,"Yes, I have training in military culture",,"106 Four Seasons Center
Chesterfield, Missouri 63017
(38.678979, -90.502887)",Suite 103B
"The Center for Healing & Recovery, LLC",No,No,Yes,Yes,No,No,No,No,No,No,Yes,Yes,Yes,Yes,No,Yes,Yes,Yes,Yes,Yes,No,http://www.HealingandRecoveryKC.com,8163682000,64068,United States,Yes,"Yes, I have training in military culture",,"1524 NE 96th St
Liberty, Missouri 64068
(39.26657, -94.454621)",Suite C
"The Center for Healing & Recovery, LLC",No,No,Yes,Yes,No,No,No,No,No,No,Yes,Yes,Yes,Yes,Yes,Yes,Yes,Yes,Yes,Yes,No,http://www.HealingandRecoveryKC.com,8163682000,64113,United States,Yes,"Yes, I have training in military culture",,"8801 E. 63rd St
Raytown, Missouri 64113
(39.009534, -94.481665)",Suite 101
The Center for Hope and Healing,No,No,No,Yes,No,No,No,No,No,No,Yes,Yes,Yes,Yes,Yes,Yes,Yes,Yes,Yes,Yes,No,,6362195432,63301,United States,No,"Not yet, but I would like to work with the military community",,"608 Jefferson Street
St. Charles, Missouri 63301
(38.783596, -90.488733)",Suite 2A
The Lighthouse Counseling Center,No,No,Yes,No,No,No,No,No,No,No,Yes,Yes,Yes,Yes,Yes,Yes,Yes,Yes,Yes,Yes,Yes,http://thelighthouse123.com,6602699577,65270,United States,No,"Not yet, but I would like to work with the military community",,"510 South Morley
Moberly, Missouri 65270
(39.413441, -92.433834)",
Therapeutic Alliance,No,No,No,Yes,No,No,No,No,No,No,No,Yes,Yes,No,No,Yes,Yes,Yes,Yes,No,No,,3144541050,63108,United States,No,"Not yet, but I would like to work with the military community",,"5261 Delmar
St. Louis, Missouri 63108
(38.652525, -90.272368)",Suite 214
The Rehabilitation Institute of Kansas City,No,No,No,No,No,No,No,No,No,Yes,No,No,No,No,No,No,No,No,No,No,Yes,http://www.rehabkc.org,8167517732,64108,United States,Yes,"Not yet, but I would like to work with the military community",,"3011 Baltimore
Kansas City, Missouri 64108
(39.071894, -94.586556)",
"Theresa Eschmann, LPC",No,Yes,No,Yes,No,No,No,No,No,No,Yes,No,No,No,No,Yes,Yes,No,No,No,No,http://theresaeschmann.com/,3145664243,63129,United States,Yes,"Yes, I have training in military culture",,"807 Collins Rd
Festus, Missouri 63129
(38.212596, -90.412324)",
"Theresa Eschmann, LPC",No,Yes,No,Yes,No,No,No,No,No,No,Yes,No,No,No,No,Yes,Yes,No,No,No,No,http://theresaeschmann.com/,3145664243,63129,United States,Yes,"Yes, I have training in military culture",,"4171 Crescent Dr
St. Louis, Missouri 63129
(38.508029, -90.335126)",Suite 104
The Robert J. Murney Clinic at Forest Institute,No,No,No,Yes,No,No,No,No,No,No,Yes,Yes,Yes,No,No,Yes,Yes,Yes,Yes,Yes,No,http://www.murneyclinic.org/counseling/providers.html,4178658943,65807,United States,No,"Not yet, but I would like to work with the military community",,"1322 South Campbell Avenue
Springfield, Missouri 65807
(37.190962, -93.294717)",
The Wild Therapist,No,No,Yes,No,No,No,No,No,No,No,No,No,No,No,No,No,Yes,Yes,Yes,Yes,No,http://margarethowardtherapist.com,3142256128,63310,United States,No,"Yes, I have served in the military",,"5232 Daggett Ave
St. Louis, Missouri 63310
(38.61693, -90.273698)",
"Thomas Murphy, LPC",No,No,No,Yes,No,No,No,No,No,No,Yes,Yes,Yes,Yes,Yes,Yes,Yes,Yes,Yes,No,No,,5737744198,65583,United States,Yes,"Not yet, but I would like to work with the military community",,"413 Historic 66 West
Waynesville, Missouri 65583
(37.824922, -92.21029)",
Thomas Pinner,No,Yes,No,No,No,No,No,No,No,No,Yes,No,No,No,No,No,No,No,No,Yes,No,,3144401132,63057,United States,No,"Not yet, but I would like to work with the military community",,"1 Liguori Dr
Liguori, Missouri 63057
(38.342126, -90.409507)",
"Tilghman Feeler, LPC",No,No,No,Yes,No,No,No,No,No,No,No,Yes,Yes,No,No,No,Yes,No,No,No,No,,5734712070,63801,United States,No,"Yes, I have served in the military",,"319 Moore St
Sikeston, Missouri 63801
(36.880664, -89.58338)",
"T Michael Henderson, MS, LPC Counseling, Consultation & Domestic/Family Mediation",No,No,No,Yes,No,No,No,No,No,No,No,Yes,Yes,No,No,Yes,Yes,No,No,No,No,,8168417772,64153,United States,Yes,"Not yet, but I would like to work with the military community",,"7280 NW 87th Terrace
Kansas City, Missouri 64153
(39.253334, -94.663645)",Ste 210 
"Tobias Simers, LPC",No,No,No,Yes,No,No,No,No,No,No,No,Yes,Yes,Yes,Yes,Yes,Yes,Yes,No,No,No,,6364866250,63040,United States,No,"Not yet, but I would like to work with the military community",,"2646 Hwy 109
Wildwood, Missouri 63040
(38.574655, -90.64508)",Suite 212
"Traci Smith, LPC",No,No,No,Yes,No,No,No,No,No,No,No,Yes,Yes,No,No,Yes,Yes,No,No,No,No,http://www.tracismithlpc.webs.com,8169220202,64155,United States,No,"Not yet, but I would like to work with the military community",,"32 Westwoods Drive
Liberty, Missouri 64155
(39.246731, -94.436274)",
Tranquil Waters Counseling & Wellness,No,No,No,No,Yes,No,No,No,No,No,No,No,No,No,No,Yes,Yes,Yes,No,No,No,http://www.tranquilwcw.com,4178818890,65807,United States,No,"Not yet, but I would like to work with the military community",,"2146 W. Chesterfield Blvd
Springfield, Missouri 65807
(37.145442, -93.322095)",Suite E202
Treatment Center for Healing and Recovery,No,No,Yes,No,No,No,No,No,No,No,No,Yes,Yes,Yes,No,Yes,Yes,No,No,No,No,http://healingandrecoverykc.com/,8164071887,64068,United States,Yes,"Not yet, but I would like to work with the military community",,"1524 NE 96th St
Liberty, Missouri 64068
(39.26657, -94.454621)",Suite C
Treatment Center for Healing and Recovery,No,No,Yes,No,No,No,No,No,No,No,No,Yes,Yes,Yes,No,Yes,Yes,No,No,No,No,http://healingandrecoverykc.com/,8164071887,64133,United States,Yes,"Not yet, but I would like to work with the military community",,"8801 E 63rd Street
Raytown, Missouri 64133
(39.010484, -94.481482)",Suite 101
Truman Behavioral Health Recovery Health Services,No,No,No,Yes,No,No,No,No,No,No,Yes,No,No,No,No,No,Yes,Yes,No,No,No,http://www.trumed.org,8164045844,64127,United States,Yes,"Not yet, but I would like to work with the military community",,"1730 Prospect Ave.
Kansas City, Missouri 64127
(39.09163, -94.55178)",Suite 300
Truman Medical Center-Behavioral Health,No,No,Yes,Yes,No,No,No,No,No,Yes,No,No,No,Yes,No,No,Yes,Yes,Yes,Yes,Yes,http://www.trumed.org,8164045797,64151,United States,Yes,"Yes, I have training in military culture",,"300 W. 19th Terrace
Kansas City, Missouri 64151
(39.090119, -94.587462)",
"Tynes and Associates, LLC",No,No,Yes,No,Yes,No,No,No,No,No,No,Yes,Yes,Yes,Yes,Yes,Yes,Yes,Yes,Yes,Yes,,4178409714,65804,United States,Yes,"Not yet, but I would like to work with the military community",,"2021 S Waverly
Springfield, Missouri 65804
(37.177373, -93.264373)",Suite 700
Understanding Minds Psychological Services,No,No,Yes,No,No,No,No,No,No,Yes,No,Yes,Yes,No,Yes,Yes,Yes,Yes,Yes,No,Yes,http://www.understandingmindsstl.com/,3147291200,63123,United States,Yes,"Yes, I have training in military culture",,"11144 Tesson Ferry Road
St. Louis, Missouri 63123
(38.526659, -90.351663)",Suite 200
University of Missouri Health System,No,No,Yes,Yes,No,No,No,No,No,No,Yes,Yes,Yes,No,Yes,Yes,Yes,Yes,No,Yes,No,,5738837407,63670,United States,Yes,"Not yet, but I would like to work with the military community",,"820 Park Drive
Sainte Genevieve, Missouri 63670
(37.971035, -90.051705)",
VA Community Based Outpatient Clinic (CBOC),No,No,No,No,No,No,No,No,No,No,Yes,Yes,No,No,No,Yes,Yes,Yes,Yes,Yes,No,http://www.columbiamo.va.gov/locations/Sedalia.asp,5738146486,65301,United States,Yes,"Yes, I have training in military culture",,"3320 West 10th Street
Sedalia, Missouri 65301
(38.703965, -93.27077)",
VA Community Based Outpatient Clinic (CBOC),No,No,No,No,No,No,No,No,No,No,Yes,Yes,No,No,No,Yes,Yes,Yes,Yes,Yes,No,,3142866988,63368,United States,Yes,"Yes, I have training in military culture",,"844 Waterbury Falls Drive
O'Fallon, Missouri 63368
(38.720876, -90.696998)",
VA Community Based Outpatient Clinic (CBOC),No,No,No,No,No,No,No,No,No,No,Yes,Yes,No,No,No,Yes,Yes,Yes,Yes,Yes,No,,4172432300,65616,United States,Yes,"Yes, I have training in military culture",,"5571 North Gretna Rd
Branson, Missouri 65616
(36.664654, -93.251822)",
VA Community Based Outpatient Clinic (CBOC),No,No,No,No,No,No,No,No,No,No,Yes,Yes,No,No,No,Yes,Yes,Yes,Yes,Yes,No,http://www.columbiamo.va.gov/locations/Mexico.asp,5735819630,65265,United States,Yes,"Yes, I have training in military culture",,"1 Veterans Drive
Mexico, Missouri 65265
(39.183157, -91.877494)",
VA Community Based Outpatient Clinic (CBOC),No,No,No,No,No,No,No,No,No,No,No,No,No,No,No,No,No,No,No,No,No,http://www.kansascity.va.gov/locations/Belton_CBOC.asp,8169221612,64012,United States,Yes,"Yes, I have training in military culture",,"17140 Bel-Ray Pl.
Belton, Missouri 64012
(38.81127, -94.49915)",
VA Community Based Outpatient Clinic (CBOC),No,No,No,No,No,No,No,No,No,No,Yes,Yes,No,No,No,Yes,Yes,Yes,Yes,Yes,No,,3142866988,63033,United States,Yes,"Yes, I have training in military culture",,"6854 Parker Road
Florissant, Missouri 63033
(38.796197, -90.234152)",
VA Community Based Outpatient Clinic (CBOC),No,No,No,No,No,No,No,No,No,No,Yes,Yes,No,No,No,Yes,Yes,Yes,Yes,Yes,No,http://www.columbiamo.va.gov/locations/Fort_Leonard_Wood.asp,5738146486,65583,United States,Yes,"Yes, I have training in military culture",,"700 Gw Ln
Waynesville, Missouri 65583
(37.808748, -92.216276)",
VA Community Based Outpatient Clinic (CBOC),No,No,No,No,No,No,No,No,No,No,Yes,Yes,No,No,No,Yes,Yes,Yes,Yes,Yes,No,http://www.poplarbluff.va.gov/locations/CapeGirardeau.asp,5733390909,63701,United States,Yes,"Yes, I have training in military culture",,"3051 William St.
Cape Girardeau, Missouri 63701
(37.30096, -89.571084)",
VA Community Based Outpatient Clinic (CBOC),No,No,No,No,No,No,No,No,No,No,Yes,Yes,No,No,No,Yes,Yes,Yes,Yes,Yes,No,http://www.kansascity.va.gov/locations/Nevada_CBOC.asp,4174488905,64772,United States,Yes,"Yes, I have training in military culture",,"322 South Prewitt
Nevada, Missouri 64772
(37.836604, -94.376131)",
VA Community Based Outpatient Clinic (CBOC),No,No,No,No,No,No,No,No,No,No,Yes,Yes,No,No,No,Yes,Yes,Yes,Yes,Yes,No,http://www.kansascity.va.gov/locations/Excelsior_Springs_CBOC.asp,8169222970,64024,United States,Yes,"Yes, I have training in military culture",,"197 McCleary Rd
Excelsior Springs, Missouri 64024
(39.331546, -94.263226)",
VA Community Based Outpatient Clinic (CBOC),No,No,No,No,No,No,No,No,No,No,Yes,Yes,No,No,No,Yes,Yes,Yes,Yes,Yes,No,http://www.kansascity.va.gov/locations/Cameron_CBOC.asp,8169222500 ext 54251,64429,United States,Yes,"Yes, I have training in military culture",,"1111 Euclid Dr.
Cameron, Missouri 64429
(39.735482, -94.250909)",
VA Community Based Outpatient Clinic (CBOC),No,No,No,No,No,No,No,No,No,No,Yes,Yes,No,No,No,Yes,Yes,Yes,Yes,Yes,No,,4174664000,65712,United States,Yes,"Yes, I have training in military culture",,"600 N. Main
Mt. Vernon, Missouri 65712
(37.111426, -93.818913)",
VA Community Based Outpatient Clinic (CBOC),No,No,No,No,No,No,No,No,No,No,No,No,No,No,No,No,No,No,No,No,No,http://www2.va.gov/directory/guide/facility.asp?id=6294&dnum=ALL,5738146486,65706,United States,Yes,"Yes, I have training in military culture",,"1240 Banning Street
Marshfield, Missouri 65706
(37.347175, -92.924291)",
VA Community Based Outpatient Clinic (CBOC),No,No,No,No,No,No,No,No,No,No,Yes,Yes,No,No,No,Yes,Yes,Yes,Yes,Yes,No,http://www.poplarbluff.va.gov/locations/farmington.asp,5737601365,63640,United States,Yes,"Yes, I have training in military culture",,"1580 W. Columbia St.
Farmington, Missouri 63640
(37.772985, -90.441864)",
VA Community Based Outpatient Clinic (CBOC),No,No,No,No,No,No,No,No,No,No,Yes,Yes,No,No,No,Yes,Yes,Yes,Yes,Yes,No,,3142897950,63090,United States,Yes,"Yes, I have training in military culture",,"1627 Aroy Drive
Washington, Missouri 63090
(38.539307, -90.993197)",
VA Community Based Outpatient Clinic (CBOC),No,No,No,No,No,No,No,No,No,No,Yes,Yes,No,No,No,Yes,Yes,Yes,Yes,Yes,No,http://www.columbiamo.va.gov/locations/Saint_James.asp,5738146486,,United States,Yes,"Yes, I have training in military culture",,"620 N. Jefferson
St. James, Missouri 65559-1999
(38.00257, -91.617568)",
VA Community Based Outpatient Clinic (CBOC),No,No,No,No,No,No,No,No,No,No,Yes,Yes,No,No,No,Yes,Yes,Yes,Yes,Yes,No,http://www.kansascity.va.gov/locations/Warrensburg_CBOC.asp,8169222500 ext 54281,64093,United States,Yes,"Yes, I have training in military culture",,"1300 Veterans Drive
Warrensburg, Missouri 64093
(38.780978, -93.705081)",
VA Community Based Outpatient Clinic (CBOC),No,No,No,No,No,No,No,No,No,No,Yes,Yes,No,No,No,Yes,Yes,Yes,Yes,Yes,No,,5738146486,65065,United States,Yes,"Yes, I have training in military culture",,"940 Executive Drive
Osage Beach, Missouri 65065
(38.094568, -92.683978)",
VA Community Based Outpatient Clinic (CBOC),No,No,No,No,No,No,No,No,No,No,Yes,Yes,No,No,No,Yes,Yes,Yes,Yes,Yes,No,,8009528387 ext 56925,64506,United States,Yes,"Yes, I have training in military culture",,"3302 S. Belt Hwy
St. Joseph, Missouri 64506
(39.735335, -94.801104)",Suite P
VA Community Based Outpatient Clinic (CBOC),No,No,No,No,No,No,No,No,No,No,Yes,Yes,No,No,No,Yes,Yes,Yes,Yes,Yes,No,http://www.poplarbluff.va.gov/locations/WestPlains.asp,4172572454,65775,United States,Yes,"Yes, I have training in military culture",,"1801 E. State Route K
West Plains, Missouri 65775
(36.725773, -91.877421)",
VA Community Based Outpatient Clinic (CBOC),No,No,No,No,No,No,No,No,No,No,Yes,Yes,No,No,No,Yes,Yes,Yes,Yes,Yes,No,http://www.poplarbluff.va.gov/locations/sikeston.asp,5734722139,63801,United States,Yes,"Yes, I have training in military culture",,"903 South Kingshighway
Sikeston, Missouri 63801
(36.867666, -89.585117)",
VA Community Based Outpatient Clinic (CBOC),No,No,No,No,No,No,No,No,No,No,Yes,Yes,No,No,No,Yes,Yes,Yes,Yes,Yes,No,http://www.columbiamo.va.gov/locations/Jefferson_City.asp,5738146486,65109,United States,Yes,"Yes, I have training in military culture",,"2707 W. Edgewood Dr
Jefferson City, Missouri 65109
(38.57196, -92.223996)",
VA Community Based Outpatient Clinic (CBOC),No,No,No,No,No,No,No,No,No,No,Yes,Yes,No,No,No,Yes,Yes,Yes,Yes,Yes,No,http://www.columbiamo.va.gov/locations/Kirksville.asp,5738146486,63501,United States,Yes,"Yes, I have training in military culture",,"1510 North Crown Drive
Kirksville, Missouri 63501
(40.206976, -92.573942)",
Vet Center (Columbia),No,No,No,Yes,No,No,No,No,No,No,No,Yes,No,No,No,Yes,No,Yes,Yes,No,No,,5738146206,65202,United States,Yes,"Yes, I have training in military culture",,"4040 Rangeline St
Columbia, Missouri 65202
(38.991274, -92.323771)",
Vet Center (Kansas City),No,No,No,Yes,No,No,No,No,No,No,No,Yes,No,No,No,Yes,No,Yes,Yes,No,No,,8167531866,64112,United States,Yes,"Yes, I have training in military culture",,"4800 Main Street
Kansas City, Missouri 64112
(39.038976, -94.587133)",
Vet Center (Springfield),No,No,No,Yes,No,No,No,No,No,No,No,Yes,No,No,No,Yes,No,Yes,Yes,No,No,http://www.va.gov/directory/guide/facility.asp?ID=5914,4178814197,65807,United States,Yes,"Yes, I have training in military culture",,"3616 S. Campbell
Springfield, Missouri 65807
(37.148264, -93.295888)",
Vet Center (St. Louis),No,No,No,Yes,No,No,No,No,No,No,No,Yes,No,No,No,Yes,No,Yes,Yes,No,No,,3145315355,63103,United States,Yes,"Yes, I have training in military culture",,"2901 Olive
St. Louis, Missouri 63103
(38.634408, -90.220185)",
"Vonita Kelly, LPC",No,No,No,Yes,No,No,No,No,No,No,Yes,Yes,No,Yes,Yes,Yes,No,No,No,No,No,http://ccc-world.net,4178809592,65804,United States,No,"Not yet, but I would like to work with the military community",,"1519 E. Sunshine Street
Springfield, Missouri 65804
(37.181728, -93.268017)",Suite B
"Vonita Kelly, LPC",No,No,No,Yes,No,No,No,No,No,No,Yes,Yes,No,Yes,Yes,Yes,No,No,No,No,No,http://ccc-world.net,4178809592,64801,United States,No,"Not yet, but I would like to work with the military community",,"615 Minnesota
Joplin, Missouri 64801
(37.084802, -94.505783)",
Waldo Psychotherapy,No,No,No,Yes,No,No,No,No,No,No,No,No,No,No,No,Yes,Yes,Yes,Yes,Yes,No,http://www.waldopsychotherapy.com,8163058538,64114,United States,No,"Yes, I have training in military culture",,"121 E. Gregory Blvd.
Kansas City, Missouri 64114
(38.999307, -94.587072)",
Warrensburg Counseling Services LLC,No,No,Yes,Yes,No,No,No,No,No,No,Yes,Yes,Yes,Yes,Yes,Yes,Yes,Yes,Yes,Yes,No,http://warrensburgcounselingservices.com/,6604296285,64093,United States,Yes,"Yes, I have training in military culture",,"210 North Holden Street
Warrensburg, Missouri 64093
(38.764555, -93.740312)",
"Wendy Jamison, LPC",No,No,No,Yes,No,No,No,No,No,No,No,Yes,No,Yes,Yes,Yes,Yes,Yes,No,No,No,,3142291019,63021,United States,No,"Yes, I have training in military culture",,"1103 Ridgeway Meadow Drive
Ellisville, Missouri 63021
(38.583052, -90.586573)",
"Wentzville Counseling Services, LLC",No,No,No,Yes,No,No,No,No,No,No,No,Yes,Yes,Yes,Yes,Yes,Yes,Yes,Yes,Yes,No,http://Wentzvillecounselingservices.com,6362932361,63385,United States,No,"Not yet, but I would like to work with the military community",,"14 East Main Street
Wentzville, Missouri 63385
(38.811143, -90.852247)",Suite 103
"Wesley Starlin, LPC",No,No,No,Yes,No,No,No,No,No,No,Yes,Yes,Yes,Yes,No,Yes,Yes,Yes,No,No,No,http://www.swcounseling.com/,4173651448,65738,United States,No,"Not yet, but I would like to work with the military community",,"528 S Eagan Street
Republic, Missouri 65738
(37.115606, -93.487886)",
West County Psychological Associates,No,No,No,Yes,No,No,No,No,No,No,Yes,Yes,Yes,Yes,Yes,Yes,Yes,Yes,Yes,Yes,Yes,http://wcpastl.com,3142758599,63141,United States,No,"Not yet, but I would like to work with the military community",,"12125 Woodcrest Executive Drive
St. Louis, Missouri 63141
(38.674975, -90.452449)",Suite 110
White Oak Counseling,No,No,No,Yes,No,No,No,No,No,No,Yes,Yes,Yes,Yes,Yes,Yes,Yes,Yes,Yes,Yes,Yes,,5732212111,63401,United States,Yes,"Not yet, but I would like to work with the military community",,"1221 Broadway St.
Hannibal, Missouri 63401
(39.707149, -91.368347)",
Will's Place (for children ages 2-18),No,No,Yes,Yes,No,No,No,No,No,Yes,Yes,Yes,Yes,Yes,Yes,Yes,Yes,Yes,Yes,Yes,Yes,http://www.freemanhealth.com/willsplace,4173477580,64804,United States,No,"Not yet, but I would like to work with the military community",,"1800 W. 30th Street
Joplin, Missouri 64804
(37.057689, -94.534768)",
Yardley Counseling,No,No,No,Yes,No,No,No,No,No,No,Yes,Yes,No,No,No,Yes,Yes,Yes,Yes,No,No,http://www.yardleycounseling.com,8166791524,64052,United States,Yes,"Not yet, but I would like to work with the military community",,"1133 W. Main St.
Blue Springs, Missouri 64052
(39.01839, -94.278216)",Suite 101
"Your Inner Journey, LLC",No,No,No,Yes,No,No,No,No,No,No,Yes,Yes,No,Yes,No,Yes,No,Yes,No,No,No,http://www.karenkwalkercounseling.com,6367343295,63301,United States,No,"Not yet, but I would like to work with the military community",,"523 South Fifth Street
St. Charles, Missouri 63301
(38.778775, -90.488141)",
YWCA St. Louis Regional Assault Center,No,No,No,No,Yes,No,No,No,No,No,No,No,No,No,No,No,No,Yes,Yes,Yes,No,http://www.HopeHealReflect.com,3147266665,63109,United States,No,"Not yet, but I would like to work with the military community",,"140 N Brentwood Blvd
St. Louis, Missouri 63109
(38.652923, -90.34072)",
